{"type":"FeatureCollection","metadata":{"layer":"agency_287g","schema":"https://github.com/NgabantuDev/get-flocked/blob/main/src/layers/types.ts","featureCount":10,"knownGaps":["Positions are county interior points, not agency addresses.","Where several agencies share a county, dots are spread on a small deterministic circle so each stays selectable.","A signed agreement does not indicate how actively it is used."],"source":"ICE — Participating agencies (287(g))","sourceUrl":"https://www.ice.gov/identify-and-arrest/287g","datasetUrl":"https://www.ice.gov/doclib/about/offices/ero/287g/participatingAgencies07202026.xlsx","license":"Public domain (US federal government work)","licenseUrl":"https://www.usa.gov/government-works","attribution":"U.S. Immigration and Customs Enforcement","sourceDate":"2026-07-20","refresh":"periodic","nationalAgreementCount":2179,"lastUpdated":"2026-07-30T18:55:52.261Z"},"features":[{"type":"Feature","geometry":{"type":"Point","coordinates":[-94.333705,46.951745]},"properties":{"id":"287g-27021-cass-county-sheriff-s-office-task-force-model-2025-02-28","layer":"agency_287g","name":"Cass County Sheriff's Office","county":"Cass County","state":"MN","countyFips":"27021","confidence":"confirmed","sourceDate":"2025-02-28","attributes":{"supportType":"Task Force Model","agencyType":"County","signed":"2025-02-28","moa":"https://www.ice.gov/doclib/287gMOA/CassCoSheriffsOfficeMN_TFM_MOA_02.28.25.pdf","locatedBy":"county-centroid","displacedForDisplay":false}}},{"type":"Feature","geometry":{"type":"Point","coordinates":[-94.00535474850042,46.491653]},"properties":{"id":"287g-27035-crow-wing-county-sheriff-s-office-task-force-model-2025-03-25","layer":"agency_287g","name":"Crow Wing County Sheriff's Office","county":"Crow Wing County","state":"MN","countyFips":"27035","confidence":"confirmed","sourceDate":"2025-03-25","attributes":{"supportType":"Task Force Model","agencyType":"County","signed":"2025-03-25","moa":"https://www.ice.gov/doclib/287gMOA/crowWingCoMN_TFM_MOA_03.19.25.pdf","locatedBy":"county-centroid","displacedForDisplay":true}}},{"type":"Feature","geometry":{"type":"Point","coordinates":[-94.13608125149958,46.491653]},"properties":{"id":"287g-27035-crow-wing-county-sheriff-s-office-warrant-service-officer-2025-03-26","layer":"agency_287g","name":"Crow Wing County Sheriff's Office","county":"Crow Wing County","state":"MN","countyFips":"27035","confidence":"confirmed","sourceDate":"2025-03-26","attributes":{"supportType":"Warrant Service Officer","agencyType":"County","signed":"2025-03-26","moa":"https://www.ice.gov/doclib/287gMOA/CrowWingCoSheriffsOfficeMA_WSO_MOA_03262025.pdf","locatedBy":"county-centroid","displacedForDisplay":true}}},{"type":"Feature","geometry":{"type":"Point","coordinates":[-93.350289,43.674202]},"properties":{"id":"287g-27047-freeborn-county-sheriff-s-office-warrant-service-officer-2025-03-26","layer":"agency_287g","name":"Freeborn County Sheriff's Office","county":"Freeborn County","state":"MN","countyFips":"27047","confidence":"confirmed","sourceDate":"2025-03-26","attributes":{"supportType":"Warrant Service Officer","agencyType":"County","signed":"2025-03-26","moa":"https://www.ice.gov/doclib/287gMOA/FreebornCountyMN_WSO_MOA031325.pdf","locatedBy":"county-centroid","displacedForDisplay":false}}},{"type":"Feature","geometry":{"type":"Point","coordinates":[-93.782896,48.245374]},"properties":{"id":"287g-27071-international-falls-police-department-task-force-model-2026-04-17","layer":"agency_287g","name":"International Falls Police Department","county":"Koochiching County","state":"MN","countyFips":"27071","confidence":"confirmed","sourceDate":"2026-04-17","attributes":{"supportType":"Task Force Model","agencyType":"Municipality","signed":"2026-04-17","moa":"https://www.ice.gov/doclib/287gMOA/InternationalFallsPDMN_TFM_MOA_04172026.pdf","locatedBy":"county-centroid","displacedForDisplay":false}}},{"type":"Feature","geometry":{"type":"Point","coordinates":[-93.56829887595134,45.929043]},"properties":{"id":"287g-27095-isle-police-department-task-force-model-2026-01-26","layer":"agency_287g","name":"Isle Police Department","county":"Mille Lacs County","state":"MN","countyFips":"27095","confidence":"confirmed","sourceDate":"2026-01-26","attributes":{"supportType":"Task Force Model","agencyType":"Municipality","signed":"2026-01-26","moa":"https://www.ice.gov/doclib/287gMOA/IslePoliceDeptMN_TFM_MOA_01262026.pdf","locatedBy":"county-centroid","displacedForDisplay":true}}},{"type":"Feature","geometry":{"type":"Point","coordinates":[-93.69769312404867,45.929043]},"properties":{"id":"287g-27095-mille-lacs-county-sheriff-s-office-task-force-model-2025-06-18","layer":"agency_287g","name":"Mille Lacs County Sheriff's Office","county":"Mille Lacs County","state":"MN","countyFips":"27095","confidence":"confirmed","sourceDate":"2025-06-18","attributes":{"supportType":"Task Force Model","agencyType":"County","signed":"2025-06-18","moa":"https://www.ice.gov/doclib/287gMOA/MilleLacsCoSheriffsOfficeMN_TFM_MOA_06182025.pdf","locatedBy":"county-centroid","displacedForDisplay":true}}},{"type":"Feature","geometry":{"type":"Point","coordinates":[-93.611102,47.490817]},"properties":{"id":"287g-27061-itasca-county-sheriff-s-office-task-force-model-2025-02-27","layer":"agency_287g","name":"Itasca County Sheriff's Office","county":"Itasca County","state":"MN","countyFips":"27061","confidence":"confirmed","sourceDate":"2025-02-27","attributes":{"supportType":"Task Force Model","agencyType":"County","signed":"2025-02-27","moa":"https://www.ice.gov/doclib/287gMOA/ItascaCoMN_TFM_MOA_02.25.25.pdf","locatedBy":"county-centroid","displacedForDisplay":false}}},{"type":"Feature","geometry":{"type":"Point","coordinates":[-95.004981,45.152714]},"properties":{"id":"287g-27067-kandiyohi-county-sheriff-s-office-warrant-service-officer-2025-05-22","layer":"agency_287g","name":"Kandiyohi County Sheriff's Office","county":"Kandiyohi County","state":"MN","countyFips":"27067","confidence":"confirmed","sourceDate":"2025-05-22","attributes":{"supportType":"Warrant Service Officer","agencyType":"County","signed":"2025-05-22","moa":"https://www.ice.gov/doclib/287gMOA/KandiyohiCountySOMN_WSO_MOA_052225.pdf","locatedBy":"county-centroid","displacedForDisplay":false}}},{"type":"Feature","geometry":{"type":"Point","coordinates":[-93.769164,45.453166]},"properties":{"id":"287g-27141-sherburne-county-sheriff-s-office-jail-enforcement-model-2025-10-17","layer":"agency_287g","name":"Sherburne County Sheriff's Office","county":"Sherburne County","state":"MN","countyFips":"27141","confidence":"confirmed","sourceDate":"2025-10-17","attributes":{"supportType":"Jail Enforcement Model","agencyType":"County","signed":"2025-10-17","moa":"https://www.ice.gov/doclib/287gMOA/SherburneCountySOMN_JEM_MOA_10172025.pdf","locatedBy":"county-centroid","displacedForDisplay":false}}}]}