{"type":"FeatureCollection","metadata":{"layer":"agency_aircraft","schema":"https://github.com/ngabantudev/flockoffmn/blob/main/src/layers/types.ts","featureCount":0,"knownGaps":["Positions reflect each aircraft’s last reported location via adsb.lol at ingest time (refreshed hourly), not literal live tracking; an aircraft with no contact in the last hour is omitted rather than drawn at a stale position.","An aircraft outside range of every volunteer ADS-B receiver, with its transponder off, or grounded with ADS-B disabled will not appear even though it exists.","No FAA-registered aircraft was found under the MN Bureau of Criminal Apprehension's name as of 2026-08-01; it does not appear to operate its own registered aircraft.","No FAA-registered aircraft was found under any Minnesota county sheriff's office name as of 2026-08-01.","ice_air records identify aircraft owned by companies currently reported to hold ICE Air charter subcontracts (Eastern Air Express, GlobalX) — this is NOT a claim that any specific flight shown is an active ICE mission; these are charter airlines that also fly unrelated commercial work. See the layer description for the full caveat.","FAA ownership matching under-counts these fleets: most charter capacity is leased rather than owned outright by the operating brand, so aircraft flying real ICE Air missions may be registered to a lessor with no name resembling either company and will not appear here."],"source":"adsb.lol (community ADS-B aggregator)","sourceUrl":"https://www.adsb.lol/","license":"ODbL 1.0","licenseUrl":"https://opendatacommons.org/licenses/odbl/1-0/","attribution":"© adsb.lol contributors","sourceDate":null,"refresh":"frequent","secondarySources":[{"key":"faa","name":"FAA Releasable Aircraft Registry","url":"https://www.faa.gov/licenses_certificates/aircraft_certification/aircraft_registry/releasable_aircraft_download/index.cfm","license":"Public domain (US federal government work)","licenseUrl":"https://www.usa.gov/government-works","contributes":{"en":"Owner-of-record cross-reference used to identify which aircraft belong to a public agency or an ICE Air charter subcontractor.","es":"Referencia cruzada del propietario registrado, usada para identificar qué aeronaves pertenecen a una agencia pública o a un subcontratista de ICE Air."}},{"key":"cbsnews-ice-charter","name":"CBS News — carriers ICE’s charter broker CSI Aviation hires for most removal flights","url":"https://www.cbs8.com/article/news/nation-world/budget-airline-begins-deportation-flights-ice/507-70860f94-6da1-469e-ac06-4bec93a6a0d1","license":"All rights reserved (cited as journalism, not redistributed)","licenseUrl":null,"contributes":{"en":"Identifies GlobalX and Eastern Air Express as the carriers currently hired for most ICE Air charter flights — the basis for the ice_air agency match below.","es":"Identifica a GlobalX y Eastern Air Express como las aerolíneas actualmente contratadas para la mayoría de los vuelos chárter de ICE Air, base de la coincidencia de agencia ice_air a continuación."}}],"lastUpdated":"2026-08-01T17:38:36.676Z"},"features":[]}