{"type":"FeatureCollection","metadata":{"layer":"data_center","schema":"https://github.com/NgabantuDev/get-flocked/blob/main/src/layers/types.ts","featureCount":20,"knownGaps":["Compiled from permit filings obtained by FOIA. A permit is not proof a facility was built, and a built facility may have changed hands since.","Power source and operating status are not in the upstream record and are left null rather than guessed.","Community-response fields come from data/community/data-center-campaigns.json and are populated only where a contributor has cited a public source.","Includes enterprise server rooms alongside hyperscale campuses; the upstream file does not distinguish them by size."],"source":"FracTracker Alliance — data centres identified via FOIA permit requests","sourceUrl":"https://www.fractracker.org/data-centers/","datasetUrl":"https://services.arcgis.com/jDGuO8tYggdCCnUJ/arcgis/rest/services/MasterFileFOIAs/FeatureServer/0","license":"FracTracker Alliance terms — attribution required, non-commercial use","licenseUrl":"https://www.fractracker.org/terms-of-use/","attribution":"FracTracker Alliance","sourceDate":null,"refresh":"periodic","nationalFacilityCount":1461,"lastUpdated":"2026-07-30T19:01:53.881Z"},"features":[{"type":"Feature","geometry":{"type":"Point","coordinates":[-93.362614,44.986269]},"properties":{"id":"dc-mn-united-healthcare-services-inc-golden-valley","layer":"data_center","name":"United HealthCare Services Inc","county":"Hennepin County","state":"MN","countyFips":"27053","confidence":"reported","sourceDate":null,"attributes":{"operator":"United HealthCare Services Inc","city":"Golden Valley","street":"6300 Olson Memorial Hwy","zip":"55427","propertyUse":null,"permitInfo":null,"notes":"Not in an environmental justice area of concern","status":null,"powerSource":null,"resistanceStatus":null,"campaignUrl":null,"petitionUrl":null,"groupName":null,"campaignSource":null}}},{"type":"Feature","geometry":{"type":"Point","coordinates":[-93.41167,45.059916]},"properties":{"id":"dc-mn-uhg-it-plymouth-plymouth","layer":"data_center","name":"UHG-IT Plymouth","county":"Hennepin County","state":"MN","countyFips":"27053","confidence":"reported","sourceDate":null,"attributes":{"operator":"UHG-IT Plymouth","city":"Plymouth","street":"6150 Trenton Ln N MN013-N110","zip":"55442","propertyUse":null,"permitInfo":null,"notes":"Within 1 mile of a census tract where at least 35% of people reported income less than 200% of the federal poverty level; Within 1 mile of a census tract with 40% or more people of color","status":null,"powerSource":null,"resistanceStatus":null,"campaignUrl":null,"petitionUrl":null,"groupName":null,"campaignSource":null}}},{"type":"Feature","geometry":{"type":"Point","coordinates":[-93.250433,44.975147]},"properties":{"id":"dc-mn-supercomputer-llc-minneapolis","layer":"data_center","name":"Supercomputer LLC","county":"Hennepin County","state":"MN","countyFips":"27053","confidence":"reported","sourceDate":null,"attributes":{"operator":"Supercomputer LLC","city":"Minneapolis","street":"1200 Washington Ave S Ste 200","zip":"55415","propertyUse":null,"permitInfo":null,"notes":"Within 1/2 mile of a census tract where at least 35% of people reported income less than 200% of the federal poverty level; Within 1/2 mile of a census tract where at least 40% of the population over age 5 has limited English proficiency; Within 1/2 mile","status":null,"powerSource":null,"resistanceStatus":null,"campaignUrl":null,"petitionUrl":null,"groupName":null,"campaignSource":null}}},{"type":"Feature","geometry":{"type":"Point","coordinates":[-93.254013,44.985507]},"properties":{"id":"dc-mn-general-mills-data-center-minneapolis-minneapolis","layer":"data_center","name":"General Mills Data Center - Minneapolis","county":"Hennepin County","state":"MN","countyFips":"27053","confidence":"reported","sourceDate":null,"attributes":{"operator":"General Mills Data Center - Minneapolis","city":"Minneapolis","street":"224 2nd St SE","zip":"55414","propertyUse":null,"permitInfo":null,"notes":"Within 1 mile of a census tract where at least 40% of the population over age 5 has limited English proficiency; Within 1 mile of a census tract with 40% or more people of color; Within 1/2 mile of a census tract where at least 35% of people reported inc","status":null,"powerSource":null,"resistanceStatus":null,"campaignUrl":null,"petitionUrl":null,"groupName":null,"campaignSource":null}}},{"type":"Feature","geometry":{"type":"Point","coordinates":[-93.0812,45.0765]},"properties":{"id":"dc-mn-innovize-vadnais-heights","layer":"data_center","name":"Innovize","county":"Ramsey County","state":"MN","countyFips":"27123","confidence":"reported","sourceDate":null,"attributes":{"operator":"Innovize","city":"Vadnais Heights","street":"500 Oak Grove Pkwy","zip":"55127","propertyUse":null,"permitInfo":null,"notes":"Not in an environmental justice area of concern","status":null,"powerSource":null,"resistanceStatus":null,"campaignUrl":null,"petitionUrl":null,"groupName":null,"campaignSource":null}}},{"type":"Feature","geometry":{"type":"Point","coordinates":[-93.094969,44.943361]},"properties":{"id":"dc-mn-ramsey-county-microfilm-dept-saint-paul","layer":"data_center","name":"Ramsey County Microfilm Dept","county":"Ramsey County","state":"MN","countyFips":"27123","confidence":"reported","sourceDate":null,"attributes":{"operator":"Ramsey County Microfilm Dept","city":"Saint Paul","street":"50 Kellogg Blvd W Ste 310","zip":"55102","propertyUse":null,"permitInfo":null,"notes":"Within 1/2 mile of a census tract where at least 35% of people reported income less than 200% of the federal poverty level; Within 1/2 mile of a census tract with 40% or more people of color","status":null,"powerSource":null,"resistanceStatus":null,"campaignUrl":null,"petitionUrl":null,"groupName":null,"campaignSource":null}}},{"type":"Feature","geometry":{"type":"Point","coordinates":[-93.330367,44.86282]},"properties":{"id":"dc-mn-databank-holdings-edina","layer":"data_center","name":"Databank Holdings","county":"Hennepin County","state":"MN","countyFips":"27053","confidence":"reported","sourceDate":null,"attributes":{"operator":"Databank Holdings","city":"Edina","street":"7700 France Ave","zip":"55435","propertyUse":null,"permitInfo":null,"notes":"Not in an environmental justice area of concern","status":null,"powerSource":null,"resistanceStatus":null,"campaignUrl":null,"petitionUrl":null,"groupName":null,"campaignSource":null}}},{"type":"Feature","geometry":{"type":"Point","coordinates":[-93.334354,45.105334]},"properties":{"id":"dc-mn-rw-data-inc-brooklyn-park","layer":"data_center","name":"RW Data Inc","county":"Hennepin County","state":"MN","countyFips":"27053","confidence":"reported","sourceDate":null,"attributes":{"operator":"RW Data Inc","city":"Brooklyn Park","street":"4084 83rd Ave N Ste 1","zip":"55443","propertyUse":null,"permitInfo":null,"notes":"In a census tract with 40% or more people of color; Within 1/2 mile of a census tract where at least 35% of people reported income less than 200% of the federal poverty level","status":null,"powerSource":null,"resistanceStatus":null,"campaignUrl":null,"petitionUrl":null,"groupName":null,"campaignSource":null}}},{"type":"Feature","geometry":{"type":"Point","coordinates":[-93.224849,44.854323]},"properties":{"id":"dc-mn-ceridian-corp-bloomington","layer":"data_center","name":"Ceridian Corp","county":"Hennepin County","state":"MN","countyFips":"27053","confidence":"reported","sourceDate":null,"attributes":{"operator":"Ceridian Corp","city":"Bloomington","street":"3311 E Old Shakopee Rd","zip":"55425","propertyUse":null,"permitInfo":null,"notes":"In a census tract where at least 35% of people reported income less than 200% of the federal poverty level; In a census tract with 40% or more people of color","status":null,"powerSource":null,"resistanceStatus":null,"campaignUrl":null,"petitionUrl":null,"groupName":null,"campaignSource":null}}},{"type":"Feature","geometry":{"type":"Point","coordinates":[-93.4031,44.915171]},"properties":{"id":"dc-mn-fis-global-hopkins","layer":"data_center","name":"FIS Global","county":"Hennepin County","state":"MN","countyFips":"27053","confidence":"reported","sourceDate":null,"attributes":{"operator":"FIS Global","city":"Hopkins","street":"601 2nd Ave S","zip":"55343","propertyUse":null,"permitInfo":null,"notes":"In a census tract with 40% or more people of color; Within 1 mile of a census tract where at least 35% of people reported income less than 200% of the federal poverty level","status":null,"powerSource":null,"resistanceStatus":null,"campaignUrl":null,"petitionUrl":null,"groupName":null,"campaignSource":null}}},{"type":"Feature","geometry":{"type":"Point","coordinates":[-93.451043,45.069496]},"properties":{"id":"dc-mn-data-recognition-corp-maple-grove","layer":"data_center","name":"Data Recognition Corp","county":"Hennepin County","state":"MN","countyFips":"27053","confidence":"reported","sourceDate":null,"attributes":{"operator":"Data Recognition Corp","city":"Maple Grove","street":"13490 Bass Lake Rd","zip":"55311","propertyUse":null,"permitInfo":null,"notes":"Not in an environmental justice area of concern","status":null,"powerSource":null,"resistanceStatus":null,"campaignUrl":null,"petitionUrl":null,"groupName":null,"campaignSource":null}}},{"type":"Feature","geometry":{"type":"Point","coordinates":[-93.446436,44.864243]},"properties":{"id":"dc-mn-kontron-mobile-computing-eden-prairie","layer":"data_center","name":"Kontron Mobile Computing","county":"Hennepin County","state":"MN","countyFips":"27053","confidence":"reported","sourceDate":null,"attributes":{"operator":"Kontron Mobile Computing","city":"Eden Prairie","street":"7631 Anagram Dr","zip":"55344","propertyUse":null,"permitInfo":null,"notes":"Within 1/2 mile of a census tract with 40% or more people of color","status":null,"powerSource":null,"resistanceStatus":null,"campaignUrl":null,"petitionUrl":null,"groupName":null,"campaignSource":null}}},{"type":"Feature","geometry":{"type":"Point","coordinates":[-93.1549,44.8828]},"properties":{"id":"dc-mn-healthpartners-data-center-mendota-heights","layer":"data_center","name":"HealthPartners Data Center","county":"Dakota County","state":"MN","countyFips":"27037","confidence":"reported","sourceDate":null,"attributes":{"operator":"HealthPartners Data Center","city":"Mendota Heights","street":"1180 Centre Pointe Cir","zip":"55120","propertyUse":null,"permitInfo":null,"notes":"In a census tract where at least 35% of people reported income less than 200% of the federal poverty level; In a census tract with 40% or more people of color","status":null,"powerSource":null,"resistanceStatus":null,"campaignUrl":null,"petitionUrl":null,"groupName":null,"campaignSource":null}}},{"type":"Feature","geometry":{"type":"Point","coordinates":[-93.6263,45.3031]},"properties":{"id":"dc-mn-united-health-group-next-technology-center-elk-river","layer":"data_center","name":"United Health Group Next Technology Center","county":"Sherburne County","state":"MN","countyFips":"27141","confidence":"reported","sourceDate":null,"attributes":{"operator":"United Health Group Next Technology Center","city":"Elk River","street":"14100 Business Center Dr","zip":"55330","propertyUse":null,"permitInfo":null,"notes":"Not in an environmental justice area of concern","status":null,"powerSource":null,"resistanceStatus":null,"campaignUrl":null,"petitionUrl":null,"groupName":null,"campaignSource":null}}},{"type":"Feature","geometry":{"type":"Point","coordinates":[-91.61393,44.047207]},"properties":{"id":"dc-mn-mediascope-inc-winona","layer":"data_center","name":"Mediascope Inc","county":"Winona County","state":"MN","countyFips":"27169","confidence":"reported","sourceDate":null,"attributes":{"operator":"Mediascope Inc","city":"Winona","street":"910 2nd St E","zip":"55987","propertyUse":null,"permitInfo":null,"notes":"In a census tract where at least 35% of people reported income less than 200% of the federal poverty level","status":null,"powerSource":null,"resistanceStatus":null,"campaignUrl":null,"petitionUrl":null,"groupName":null,"campaignSource":null}}},{"type":"Feature","geometry":{"type":"Point","coordinates":[-93.226208,44.993147]},"properties":{"id":"dc-mn-fairview-data-center-minneapolis","layer":"data_center","name":"Fairview Data Center","county":"Hennepin County","state":"MN","countyFips":"27053","confidence":"reported","sourceDate":null,"attributes":{"operator":"Fairview Data Center","city":"Minneapolis","street":"323 Stinson Blvd","zip":"55413","propertyUse":null,"permitInfo":null,"notes":"In a census tract where at least 35% of people reported income less than 200% of the federal poverty level","status":null,"powerSource":null,"resistanceStatus":null,"campaignUrl":null,"petitionUrl":null,"groupName":null,"campaignSource":null}}},{"type":"Feature","geometry":{"type":"Point","coordinates":[-93.6339,44.8081]},"properties":{"id":"dc-mn-optum-c-o-united-health-group-chaska","layer":"data_center","name":"Optum c/o United Health Group","county":"Carver County","state":"MN","countyFips":"27019","confidence":"reported","sourceDate":null,"attributes":{"operator":"Optum c/o United Health Group","city":"Chaska","street":"1707 W Creek Ln","zip":"55318","propertyUse":null,"permitInfo":null,"notes":"Not in an environmental justice area of concern","status":null,"powerSource":null,"resistanceStatus":null,"campaignUrl":null,"petitionUrl":null,"groupName":null,"campaignSource":null}}},{"type":"Feature","geometry":{"type":"Point","coordinates":[-93.401243,45.048765]},"properties":{"id":"dc-mn-global-ewaste-solutions-plymouth","layer":"data_center","name":"Global Ewaste Solutions","county":"Hennepin County","state":"MN","countyFips":"27053","confidence":"reported","sourceDate":null,"attributes":{"operator":"Global Ewaste Solutions","city":"Plymouth","street":"5205 Highway 169  N","zip":"55442","propertyUse":null,"permitInfo":null,"notes":"Within 1/2 mile of a census tract where at least 35% of people reported income less than 200% of the federal poverty level; Within 1/2 mile of a census tract with 40% or more people of color","status":null,"powerSource":null,"resistanceStatus":null,"campaignUrl":null,"petitionUrl":null,"groupName":null,"campaignSource":null}}},{"type":"Feature","geometry":{"type":"Point","coordinates":[-93.3858,45.143622]},"properties":{"id":"dc-mn-databank-msp3-brooklyn-park","layer":"data_center","name":"Databank MSP3","county":"Hennepin County","state":"MN","countyFips":"27053","confidence":"reported","sourceDate":null,"attributes":{"operator":"Databank MSP3","city":"Brooklyn Park","street":"8111 Oxbow Creek N","zip":"55445","propertyUse":null,"permitInfo":null,"notes":"Not in an environmental justice area of concern","status":null,"powerSource":null,"resistanceStatus":null,"campaignUrl":null,"petitionUrl":null,"groupName":null,"campaignSource":null}}},{"type":"Feature","geometry":{"type":"Point","coordinates":[-93.054972,44.73429]},"properties":{"id":"dc-mn-jimnist-llc-rosemount","layer":"data_center","name":"Jimnist LLC","county":"Dakota County","state":"MN","countyFips":"27037","confidence":"reported","sourceDate":null,"attributes":{"operator":"Jimnist LLC","city":"Rosemount","street":"14701 Blaine Ave Bldg 1","zip":"55068","propertyUse":null,"permitInfo":null,"notes":"Not in an environmental justice area of concern","status":null,"powerSource":null,"resistanceStatus":null,"campaignUrl":null,"petitionUrl":null,"groupName":null,"campaignSource":null}}}]}