{"type":"FeatureCollection","metadata":{"layer":"detention_facility","schema":"https://github.com/ngabantudev/flockoffmn/blob/main/src/layers/types.ts","featureCount":5,"knownGaps":["Facility-level only. This layer contains no information about any detained person, by design.","ICE publishes no coordinates; positions are city or county interior points, not building addresses.","Covers only adult facilities authorised to hold people over 72 hours — not juvenile or family facilities, and not short-term holding rooms.","Contracts change without announcement; a listed facility may not currently hold anyone for ICE."],"source":"ICE — Authorized Over 72-Hour Facility List","sourceUrl":"https://www.ice.gov/detain/detention-management","datasetUrl":"https://www.ice.gov/doclib/detention/Over72HourFacilities.xlsx","license":"Public domain (US federal government work)","licenseUrl":"https://www.usa.gov/government-works","attribution":"U.S. Immigration and Customs Enforcement","sourceDate":null,"refresh":"periodic","nationalFacilityCount":165,"lastUpdated":"2026-07-30T18:58:50.085Z"},"features":[{"type":"Feature","geometry":{"type":"Point","coordinates":[-93.610023,44.816364]},"properties":{"id":"detention-mn-carver-county-jail","layer":"detention_facility","name":"Carver County Jail","county":"Carver County","state":"MN","countyFips":"27019","confidence":"confirmed","sourceDate":null,"attributes":{"city":"Chaska","contractType":"Inter-Governmental Service Agreement","facilityType":"Local jail under ICE contract","operator":"County government","locatedBy":"city-centroid","inspectionUrl":"https://www.ice.gov/detain/detention-facilities"}}},{"type":"Feature","geometry":{"type":"Point","coordinates":[-93.364148,43.654293]},"properties":{"id":"detention-mn-freeborn-county-adult-detention-center","layer":"detention_facility","name":"Freeborn County Adult Detention Center","county":"Freeborn County","state":"MN","countyFips":"27047","confidence":"confirmed","sourceDate":null,"attributes":{"city":"Albert Lea","contractType":"Inter-Governmental Service Agreement","facilityType":"Local jail under ICE contract","operator":"County government","locatedBy":"city-centroid","inspectionUrl":"https://www.ice.gov/detain/detention-facilities"}}},{"type":"Feature","geometry":{"type":"Point","coordinates":[-95.058651,45.121042]},"properties":{"id":"detention-mn-kandiyohi-county-jail","layer":"detention_facility","name":"Kandiyohi County Jail","county":"Kandiyohi County","state":"MN","countyFips":"27067","confidence":"confirmed","sourceDate":null,"attributes":{"city":"Willmar","contractType":"Inter-Governmental Service Agreement","facilityType":"Local jail under ICE contract","operator":"County government","locatedBy":"city-centroid","inspectionUrl":"https://www.ice.gov/detain/detention-facilities"}}},{"type":"Feature","geometry":{"type":"Point","coordinates":[-95.599702,43.628733]},"properties":{"id":"detention-mn-nobles-county-jail","layer":"detention_facility","name":"Nobles County Jail","county":"Nobles County","state":"MN","countyFips":"27105","confidence":"confirmed","sourceDate":null,"attributes":{"city":"Worthington","contractType":"Inter-Governmental Service Agreement","facilityType":"Local jail under ICE contract","operator":"County government","locatedBy":"city-centroid","inspectionUrl":"https://www.ice.gov/detain/detention-facilities"}}},{"type":"Feature","geometry":{"type":"Point","coordinates":[-93.566528,45.332212]},"properties":{"id":"detention-mn-sherburne-county-jail","layer":"detention_facility","name":"Sherburne County Jail","county":"Sherburne County","state":"MN","countyFips":"27141","confidence":"confirmed","sourceDate":null,"attributes":{"city":"Elk River","contractType":"Inter-Governmental Service Agreement","facilityType":"Local jail under ICE contract","operator":"County government","locatedBy":"city-centroid","inspectionUrl":"https://www.ice.gov/detain/detention-facilities"}}}]}