{"type":"FeatureCollection","metadata":{"layer":"observed_ice_flight","schema":"https://github.com/ngabantudev/flockoffmn/blob/main/src/layers/types.ts","featureCount":1,"knownGaps":["This is a volunteer observation log, not a government record. No agency publishes ICE Air departure manifests or passenger counts for these flights.","Passenger counts and destinations are as reported by observers at the time, not verified against any official manifest.","A flight not appearing here does not mean it did not happen — only that no observer logged it. The compiler states best effort to log within 24 hours of a flight and believes the log is complete back to 2025-10-01, but neither is guaranteed.","Every record is pinned to MSP airport itself, not a drawn flight path — the reported destination is text, not a verified route.","This file is updated by hand from the cited source, which has no stable public API; expect a lag between a flight happening and its appearance here."],"source":"MN50501: MSP ICE Air Flights, compiled by Nick Benson","sourceUrl":"https://airtable.com/appXo5spat4J3IQ9K/shrhjlIuy1V64gR4A/tbl4ZyyH4kmbsgDAw/viwrMDP3ciEuh3yXf","license":"\"These data can be used by anyone; attribution 'Nick Benson, MN50501' is appreciated.\" (stated on the base itself, not a formal license)","licenseUrl":null,"attribution":"Nick Benson, Minnesota 50501","sourceDate":null,"refresh":"periodic","secondarySources":[],"lastUpdated":"2026-08-01T17:44:07.287Z"},"features":[{"type":"Feature","geometry":{"type":"Point","coordinates":[-93.22167,44.88194]},"properties":{"id":"ice-air-flight-2026-07-31-n625sw","layer":"observed_ice_flight","name":"N625SW — 2026-07-31","county":"Hennepin","state":"MN","countyFips":"27053","confidence":"reported","sourceDate":"2026-07-31","attributes":{"airport":"MSP","tailNumber":"N625SW","reportedPassengerCount":28,"reportedDestinations":"Alexandria, LA; El Paso, TX","reportedBy":"MN50501: MSP ICE Air Flights, compiled by Nick Benson","sourceNote":"Logged by volunteer observers at MSP."}}}]}