{"type":"FeatureCollection","metadata":{"source":"OpenStreetMap via Overpass API","sourceUrl":"https://www.openstreetmap.org/","license":"ODbL 1.0","licenseUrl":"https://opendatacommons.org/licenses/odbl/1-0/","attribution":"© OpenStreetMap contributors","fetchedAt":"2026-08-02T01:36:10.972Z","note":"Way-geometry aerodromes only, tagged with an ICAO, IATA, or FAA identifier. Airports mapped as multipolygon relations are not included."},"features":[{"type":"Feature","geometry":{"type":"Polygon","coordinates":[[[-95.7835165,43.9785745],[-95.7814276,43.9785825],[-95.7814208,43.9894521],[-95.780661,43.9894542],[-95.7806587,43.9930771],[-95.7814186,43.9930753],[-95.7814212,43.993898],[-95.7835106,43.9938929],[-95.7835165,43.9785745]]]},"properties":{"name":"Slayton Municipal Airport","icao":"KDVP","iata":"NSL","faa":null,"label":"NSL"}},{"type":"Feature","geometry":{"type":"Polygon","coordinates":[[[-93.4644942,44.8334648],[-93.4636989,44.8331892],[-93.4635002,44.8331026],[-93.4628595,44.8328754],[-93.4617422,44.8325023],[-93.4595624,44.8318424],[-93.4470482,44.8288172],[-93.4467049,44.8286954],[-93.4463187,44.8285128],[-93.4458295,44.8281902],[-93.4498577,44.8249208],[-93.450341,44.8245286],[-93.4542151,44.8213841],[-93.4545155,44.8212198],[-93.4551764,44.8208971],[-93.4554167,44.8207936],[-93.4558287,44.8206292],[-93.4563609,44.8204709],[-93.4568072,44.8203674],[-93.4574338,44.8202639],[-93.4579487,44.8202152],[-93.4597373,44.8201543],[-93.4597373,44.8201728],[-93.4597325,44.8222282],[-93.4597294,44.8236015],[-93.4637664,44.8241727],[-93.4638974,44.8237233],[-93.4681591,44.824665],[-93.4698068,44.8250153],[-93.4701468,44.8251768],[-93.470334,44.8253399],[-93.4709624,44.826067],[-93.4720977,44.827653],[-93.4724613,44.8279142],[-93.4727353,44.8280904],[-93.4731866,44.8283056],[-93.4734737,44.8284942],[-93.4736618,44.8287492],[-93.4737775,44.8290664],[-93.4732443,44.8308138],[-93.4729371,44.8309646],[-93.4692156,44.831262],[-93.4691343,44.8312685],[-93.4686956,44.8312261],[-93.4683765,44.8310592],[-93.4681614,44.830982],[-93.4676379,44.831039],[-93.466343,44.8324998],[-93.4662326,44.8326782],[-93.4661643,44.8327856],[-93.4659277,44.8331573],[-93.4655468,44.833808],[-93.4644942,44.8334648]]]},"properties":{"name":"Flying Cloud Airport","icao":"KFCM","iata":"FCM","faa":null,"label":"FCM"}},{"type":"Feature","geometry":{"type":"Polygon","coordinates":[[[-93.0698272,44.9421348],[-93.0694581,44.9421834],[-93.0691148,44.9423292],[-93.0688401,44.9425115],[-93.0684968,44.942712],[-93.0682565,44.9428335],[-93.0679818,44.9428942],[-93.0676385,44.9429125],[-93.0672952,44.942876],[-93.0669947,44.9427727],[-93.066763,44.9426087],[-93.066454,44.94239],[-93.0661518,44.9422302],[-93.0657004,44.9422101],[-93.0629006,44.9422563],[-93.0627484,44.9424544],[-93.0625011,44.9425379],[-93.0622311,44.942548],[-93.0619565,44.9425297],[-93.0615617,44.942469],[-93.0582829,44.9407254],[-93.0577679,44.9403001],[-93.0549274,44.9372983],[-93.0537021,44.9360035],[-93.0528889,44.9350314],[-93.052515,44.9343379],[-93.0522382,44.9336073],[-93.0520161,44.9330487],[-93.0517886,44.9321904],[-93.0516626,44.931394],[-93.0517205,44.9298809],[-93.0515317,44.9285874],[-93.0518772,44.9275407],[-93.0522843,44.9271453],[-93.0525203,44.9266603],[-93.052633,44.9255964],[-93.0532644,44.9243073],[-93.0532478,44.9237809],[-93.0534816,44.9236305],[-93.0571671,44.9274429],[-93.0593301,44.9263673],[-93.0595446,44.9263673],[-93.0597421,44.9264281],[-93.0633126,44.9280081],[-93.0651955,44.93017],[-93.0653382,44.930299],[-93.065527,44.9303598],[-93.0657845,44.9303172],[-93.0676556,44.9295273],[-93.0681878,44.9299162],[-93.0685998,44.9303598],[-93.0689174,44.9307669],[-93.0692006,44.9311801],[-93.0694066,44.9315568],[-93.0697327,44.9325776],[-93.0698272,44.9421348]]]},"properties":{"name":"St. Paul Downtown Airport","icao":"KSTP","iata":"STP","faa":null,"label":"STP"}},{"type":"Feature","geometry":{"type":"Polygon","coordinates":[[[-93.2219615,45.1333035],[-93.2218574,45.1331796],[-93.2216723,45.1330017],[-93.2215194,45.132927],[-93.2191993,45.1324586],[-93.2176691,45.1316185],[-93.2173137,45.1316071],[-93.2171957,45.1306345],[-93.2169986,45.1291793],[-93.2157809,45.1289333],[-93.2150486,45.1285038],[-93.2149145,45.1282814],[-93.2146047,45.1277941],[-93.214433,45.1273816],[-93.2142305,45.1268858],[-93.2140361,45.1265328],[-93.2138188,45.126195],[-93.2135519,45.1258866],[-93.2131952,45.1255895],[-93.2122122,45.1248618],[-93.211889,45.1248429],[-93.2113606,45.1248107],[-93.2105801,45.1247691],[-93.2095984,45.1247066],[-93.2090847,45.1246773],[-93.2086046,45.1246612],[-93.208331,45.1246593],[-93.2073339,45.1246513],[-93.2072801,45.1371999],[-93.2050303,45.1372587],[-93.2049061,45.1390875],[-93.2048519,45.1427908],[-93.2028702,45.1427699],[-93.1922172,45.1426883],[-93.1919669,45.1427003],[-93.1916239,45.1428116],[-93.1914827,45.1428857],[-93.191375,45.1429735],[-93.1919601,45.143367],[-93.1925384,45.14397],[-93.1927085,45.1442128],[-93.1928401,45.1444724],[-93.1929913,45.1449583],[-93.1930304,45.1452306],[-93.1930338,45.1454804],[-93.1926924,45.147845],[-93.1925134,45.1491091],[-93.1925556,45.1491219],[-93.1924684,45.1497784],[-93.2045836,45.1499091],[-93.2045287,45.1527543],[-93.2056351,45.1527436],[-93.2056278,45.1533419],[-93.2079311,45.1533353],[-93.2094284,45.1533285],[-93.2097887,45.15335],[-93.2104019,45.1534196],[-93.2107804,45.1534947],[-93.2114888,45.153706],[-93.2123132,45.1540778],[-93.2125321,45.1542444],[-93.2129358,45.1539995],[-93.2132447,45.1538543],[-93.213734,45.1537574],[-93.2174447,45.153857],[-93.2175525,45.1518474],[-93.2183419,45.1516647],[-93.2203778,45.1516468],[-93.2216884,45.1504249],[-93.2208825,45.1502626],[-93.220913,45.1490472],[-93.2221252,45.1484532],[-93.2221591,45.1475244],[-93.222624,45.1475285],[-93.2234376,45.1475884],[-93.2258811,45.1477857],[-93.2260598,45.1468945],[-93.2263897,45.1469119],[-93.2266311,45.1468954],[-93.2278346,45.1470323],[-93.2277901,45.1426662],[-93.2251826,45.1426497],[-93.2251922,45.1418934],[-93.2251979,45.1402369],[-93.2231969,45.1402069],[-93.2227116,45.139695],[-93.2224743,45.1394717],[-93.2223938,45.1393535],[-93.2220989,45.1387584],[-93.2221185,45.1352231],[-93.2220583,45.1335388],[-93.2220224,45.133418],[-93.2219615,45.1333035]]]},"properties":{"name":"Anoka County-Blaine Airport","icao":"KANE","iata":null,"faa":"ANE","label":"KANE"}},{"type":"Feature","geometry":{"type":"Polygon","coordinates":[[[-93.3627351,45.0618744],[-93.3618057,45.0618739],[-93.3599666,45.0618728],[-93.3596487,45.0618693],[-93.3590914,45.0621556],[-93.3590921,45.0623991],[-93.3599634,45.0624043],[-93.3599487,45.0657647],[-93.3601174,45.0683128],[-93.3601968,45.0691882],[-93.3591473,45.0691958],[-93.3590816,45.0683497],[-93.3577167,45.0683813],[-93.357721,45.0691815],[-93.3527784,45.0691991],[-93.3521565,45.0680391],[-93.3516068,45.0676756],[-93.3509182,45.0673606],[-93.3491966,45.0660999],[-93.3492951,45.0657132],[-93.3483877,45.0654625],[-93.3467718,45.0651053],[-93.3460603,45.06487],[-93.3447688,45.0638726],[-93.3447651,45.0634939],[-93.3466037,45.0634904],[-93.3466035,45.0620005],[-93.3454869,45.0620084],[-93.3454899,45.0618884],[-93.3456689,45.0546049],[-93.3460567,45.0546086],[-93.3463209,45.0546773],[-93.3463888,45.0546949],[-93.3464695,45.0547159],[-93.3465853,45.0546267],[-93.3492234,45.0546481],[-93.3492122,45.0563845],[-93.3498918,45.0563935],[-93.3498757,45.0568669],[-93.3499622,45.0569506],[-93.3531496,45.0569622],[-93.3531241,45.0582353],[-93.3531226,45.0583093],[-93.3532658,45.0583102],[-93.3532566,45.0584883],[-93.3557265,45.0585293],[-93.355792,45.05859],[-93.3557608,45.0587882],[-93.3557036,45.0587831],[-93.3556888,45.0588779],[-93.3556666,45.0590027],[-93.3557275,45.0590083],[-93.3556007,45.0597767],[-93.3555871,45.059823],[-93.3555567,45.0598823],[-93.3555233,45.0599237],[-93.3550366,45.0602042],[-93.3553657,45.0604866],[-93.3553514,45.0605527],[-93.3554928,45.0605646],[-93.3554952,45.0605528],[-93.3555575,45.0605593],[-93.3555327,45.0606967],[-93.3555784,45.0607015],[-93.3555849,45.0606662],[-93.3557523,45.0606817],[-93.3557546,45.0606737],[-93.3559108,45.0606859],[-93.3562953,45.0604692],[-93.3558028,45.0599903],[-93.3557736,45.0599457],[-93.35576,45.059915],[-93.3557567,45.0598863],[-93.3559093,45.0589615],[-93.3560043,45.0587783],[-93.3560746,45.0587408],[-93.3562318,45.0586568],[-93.3562804,45.0584588],[-93.3594463,45.0584755],[-93.359474,45.0584948],[-93.3595856,45.0585983],[-93.3597248,45.0587329],[-93.3597619,45.0587689],[-93.3598591,45.0587187],[-93.3603618,45.0584553],[-93.3605265,45.0585137],[-93.3627351,45.0618744]]]},"properties":{"name":"Crystal Airport","icao":"KMIC","iata":"MIC","faa":null,"label":"MIC"}},{"type":"Feature","geometry":{"type":"Polygon","coordinates":[[[-93.3714517,43.6877734],[-93.3694217,43.6809973],[-93.3722005,43.6791925],[-93.3720626,43.6790151],[-93.3719419,43.6789073],[-93.3715831,43.6787898],[-93.3701073,43.678344],[-93.369815,43.6775192],[-93.3695371,43.6775557],[-93.3689813,43.6774548],[-93.3687252,43.6766059],[-93.3682357,43.6749833],[-93.3676709,43.6732701],[-93.3639643,43.6732541],[-93.3639008,43.6732538],[-93.3638718,43.6765409],[-93.3638954,43.677209],[-93.3639437,43.6785785],[-93.3639394,43.6818164],[-93.3626427,43.6818472],[-93.3627346,43.6837693],[-93.3604568,43.6853792],[-93.3609064,43.6859588],[-93.3616445,43.6864281],[-93.3661141,43.6836552],[-93.3666978,43.685756],[-93.3671881,43.6875205],[-93.3682899,43.6883537],[-93.3714517,43.6877734]]]},"properties":{"name":"Albert Lea Municipal Airport","icao":"KAEL","iata":"AEL","faa":null,"label":"AEL"}},{"type":"Feature","geometry":{"type":"Polygon","coordinates":[[[-92.4835024,43.9206108],[-92.4886777,43.9206435],[-92.4940978,43.920679],[-92.4966797,43.9206832],[-92.4966831,43.920514],[-92.4967457,43.9174285],[-92.4971351,43.9175255],[-92.4976115,43.9176947],[-92.4980846,43.9179007],[-92.4985792,43.9181476],[-92.4990379,43.9184409],[-92.4999074,43.9190213],[-92.5005136,43.9194262],[-92.5011107,43.9197701],[-92.5018386,43.9200974],[-92.5025205,43.9203227],[-92.5033037,43.9205368],[-92.503303,43.9206212],[-92.5032892,43.9223194],[-92.503287,43.9225976],[-92.5032812,43.9233142],[-92.5032736,43.9242476],[-92.5080643,43.9242618],[-92.5084796,43.924263],[-92.516592,43.9242869],[-92.5180735,43.9242913],[-92.5189806,43.924867],[-92.5193696,43.9245822],[-92.5183959,43.9239354],[-92.5184069,43.9231224],[-92.5184089,43.9229763],[-92.5184206,43.9221113],[-92.5189672,43.9216592],[-92.5205063,43.9210109],[-92.5210213,43.9209151],[-92.5216468,43.9208706],[-92.5229986,43.9208629],[-92.5230131,43.9205263],[-92.5185027,43.9205634],[-92.5185104,43.9191152],[-92.5185132,43.9186014],[-92.518519,43.9175127],[-92.51852,43.9173197],[-92.5185251,43.9163666],[-92.51854,43.9135793],[-92.5185415,43.9132939],[-92.5185788,43.9063302],[-92.5166342,43.9063177],[-92.515113,43.9063079],[-92.5138986,43.9063001],[-92.5083779,43.9062645],[-92.5084337,43.8989362],[-92.5086833,43.8989385],[-92.5087141,43.8989388],[-92.5103192,43.8989539],[-92.5103589,43.896814],[-92.5127679,43.8932425],[-92.5135772,43.8920427],[-92.513679,43.8918918],[-92.5136767,43.891223],[-92.5136543,43.8845625],[-92.5087169,43.884547],[-92.508711,43.8881348],[-92.5036346,43.8881128],[-92.5036214,43.8909873],[-92.5036169,43.8919674],[-92.5036141,43.8925768],[-92.503609,43.8936647],[-92.5036009,43.8954305],[-92.5035979,43.8960757],[-92.5015528,43.8990494],[-92.5007166,43.8990456],[-92.4999582,43.8990421],[-92.4939261,43.8990146],[-92.488403,43.8989893],[-92.4845411,43.8989717],[-92.4844779,43.8989714],[-92.4835182,43.8989607],[-92.4836061,43.8987223],[-92.4834493,43.8986768],[-92.4834737,43.8963519],[-92.4819995,43.8974607],[-92.4813727,43.8968407],[-92.480523,43.8975359],[-92.4796389,43.8969453],[-92.4787991,43.8976146],[-92.4781269,43.8971915],[-92.477075,43.898075],[-92.477723,43.8984907],[-92.4771018,43.8990002],[-92.4785043,43.8990081],[-92.4785075,43.8992441],[-92.476814,43.9003469],[-92.4785016,43.9011466],[-92.4836778,43.9011566],[-92.483519,43.9015723],[-92.4832267,43.902355],[-92.4817624,43.9062694],[-92.4804407,43.9097809],[-92.4804092,43.9098646],[-92.4840368,43.9105699],[-92.4834145,43.9123008],[-92.4835414,43.9169385],[-92.4835483,43.9171897],[-92.4835457,43.9180641],[-92.4835153,43.919848],[-92.4835024,43.9206108]]]},"properties":{"name":"Rochester International Airport","icao":"KRST","iata":"RST","faa":null,"label":"RST"}},{"type":"Feature","geometry":{"type":"Polygon","coordinates":[[[-94.9544613,47.5233367],[-94.9497737,47.5232903],[-94.9442888,47.5198276],[-94.9317793,47.5120335],[-94.928597,47.5119592],[-94.9180808,47.5140483],[-94.9164587,47.5102739],[-94.9183557,47.5099397],[-94.9194142,47.5037088],[-94.9195379,47.50109],[-94.9189674,47.500686],[-94.9160737,47.5015822],[-94.9123896,47.4991768],[-94.9130082,47.4985964],[-94.9140736,47.4969107],[-94.9188918,47.4981645],[-94.9188918,47.4983596],[-94.9190774,47.4985314],[-94.9223491,47.4998827],[-94.9240056,47.5007139],[-94.9250159,47.5009135],[-94.9254833,47.501624],[-94.9271603,47.5025063],[-94.9278546,47.5020419],[-94.9314494,47.5044239],[-94.934673,47.5049857],[-94.9345424,47.5052828],[-94.9347211,47.5057982],[-94.9427216,47.5043264],[-94.9486946,47.5058957],[-94.9487495,47.5079572],[-94.9437293,47.5089203],[-94.9441125,47.509822],[-94.9422184,47.5101983],[-94.9417388,47.5120938],[-94.9488183,47.5167314],[-94.9492032,47.5174417],[-94.9499111,47.5180916],[-94.9525849,47.5198648],[-94.953554,47.5208117],[-94.954042,47.5215451],[-94.9543719,47.522543],[-94.9544613,47.5233367]]]},"properties":{"name":"Bemidji Regional Airport","icao":"KBJI","iata":"BJI","faa":null,"label":"BJI"}},{"type":"Feature","geometry":{"type":"Polygon","coordinates":[[[-94.147073,46.3891259],[-94.1475721,46.38935],[-94.1483513,46.3897545],[-94.1492324,46.390411],[-94.1507205,46.3916416],[-94.1512182,46.3921214],[-94.1515177,46.392474],[-94.151792,46.3928225],[-94.152074,46.3932752],[-94.1522527,46.3936215],[-94.1526525,46.3947466],[-94.1492556,46.3964713],[-94.1498431,46.3977767],[-94.1515188,46.3980382],[-94.1513551,46.3987158],[-94.1486941,46.4007061],[-94.1469762,46.399832],[-94.1442651,46.3984878],[-94.1370474,46.4021741],[-94.135263,46.4056059],[-94.1350686,46.4059572],[-94.1351245,46.4080753],[-94.1387997,46.4162162],[-94.1394926,46.4177131],[-94.1406183,46.4202094],[-94.1345628,46.4215194],[-94.1338763,46.4199949],[-94.1306343,46.4128217],[-94.1290883,46.4094139],[-94.1279317,46.4068436],[-94.1254099,46.408128],[-94.12502,46.4078079],[-94.1246023,46.4075963],[-94.1241196,46.4074422],[-94.1225173,46.4076266],[-94.1220816,46.4078579],[-94.1217783,46.4078012],[-94.1218485,46.4076243],[-94.1214706,46.4072535],[-94.1214563,46.4063804],[-94.1212494,46.4060345],[-94.1210829,46.405443],[-94.1210122,46.4042997],[-94.1257709,46.4015996],[-94.1250956,46.4000883],[-94.1247448,46.3993212],[-94.1237032,46.3969638],[-94.1283517,46.3954959],[-94.1288387,46.3953034],[-94.1292941,46.3957886],[-94.1302844,46.3954433],[-94.131486,46.3955977],[-94.1318168,46.3953977],[-94.1320597,46.393446],[-94.1321351,46.3933206],[-94.1323788,46.3931417],[-94.1327224,46.3928893],[-94.1384343,46.3886731],[-94.1392232,46.3884708],[-94.139838,46.3888554],[-94.1401382,46.3889749],[-94.1411207,46.3886784],[-94.14284,46.3885513],[-94.1446004,46.3886219],[-94.1460946,46.3889043],[-94.147073,46.3891259]]]},"properties":{"name":"Brainerd Lakes Regional Airport","icao":"KBRD","iata":"BRD","faa":null,"label":"BRD"}},{"type":"Feature","geometry":{"type":"Polygon","coordinates":[[[-95.2134271,46.4439214],[-95.2133899,46.4471108],[-95.214572,46.4471182],[-95.2145125,46.4486064],[-95.2144731,46.4491532],[-95.2142628,46.4530111],[-95.2171607,46.4596708],[-95.2113991,46.4596708],[-95.2114139,46.4594248],[-95.2114905,46.4581562],[-95.2115082,46.4578635],[-95.211518,46.4577007],[-95.211058,46.4568092],[-95.2107969,46.456303],[-95.2106923,46.4562294],[-95.2080164,46.4543478],[-95.208232,46.4486084],[-95.2045222,46.4486233],[-95.2042918,46.446497],[-95.2053772,46.4422594],[-95.20902,46.4406313],[-95.2184338,46.4362415],[-95.2184358,46.4411547],[-95.2159855,46.4411922],[-95.2134271,46.4439214]]]},"properties":{"name":"Wadena Municipal Airport","icao":"KADC","iata":null,"faa":"ADC","label":"KADC"}},{"type":"Feature","geometry":{"type":"Polygon","coordinates":[[[-93.1994052,44.8708459],[-93.201272,44.8713934],[-93.2013348,44.8714151],[-93.2021947,44.8717127],[-93.20242,44.871515],[-93.2099624,44.8747236],[-93.2135136,44.876229],[-93.2137175,44.8762974],[-93.2139428,44.8763506],[-93.2144363,44.8764875],[-93.2147582,44.8765255],[-93.2155414,44.8765407],[-93.2235237,44.8765711],[-93.22347,44.874313],[-93.2234593,44.8701388],[-93.2234731,44.869171],[-93.2234593,44.868793],[-93.2234593,44.8684888],[-93.2235022,44.8682379],[-93.2235451,44.8677816],[-93.2235773,44.8671961],[-93.2235773,44.8669224],[-93.2235451,44.8661468],[-93.2235558,44.865143],[-93.2235344,44.8647856],[-93.2235344,44.8646487],[-93.2238263,44.8646028],[-93.2240371,44.8645364],[-93.2241588,44.8644156],[-93.2242212,44.8642744],[-93.2242093,44.8636427],[-93.2242044,44.8634472],[-93.2242376,44.8632045],[-93.2243701,44.8630602],[-93.2247253,44.8629149],[-93.2257231,44.86274],[-93.2262488,44.862664],[-93.2268174,44.8625575],[-93.2273753,44.8625119],[-93.2278688,44.8625043],[-93.231184,44.8625271],[-93.2314737,44.8625499],[-93.2326647,44.8625509],[-93.23264,44.8618842],[-93.2313818,44.8593354],[-93.2313842,44.8589484],[-93.236995,44.8590245],[-93.2372229,44.8590641],[-93.2373404,44.8592135],[-93.237278,44.8628845],[-93.23728,44.8630362],[-93.2374437,44.8630405],[-93.2374348,44.8631479],[-93.2374617,44.8633076],[-93.2374992,44.8634444],[-93.2375368,44.8635547],[-93.2375904,44.8636992],[-93.2376441,44.863798],[-93.2377138,44.8639083],[-93.237805,44.8640376],[-93.2379069,44.8641554],[-93.2380196,44.8642657],[-93.2381376,44.8643532],[-93.2381483,44.864414],[-93.2382502,44.8644862],[-93.2384112,44.8645623],[-93.2385614,44.8646231],[-93.2387877,44.864681],[-93.2390484,44.8647221],[-93.2390637,44.8648215],[-93.2389843,44.8648397],[-93.238996,44.8651418],[-93.2390202,44.8653988],[-93.239058,44.8655354],[-93.2392394,44.8655264],[-93.2392533,44.8661289],[-93.2392643,44.8663092],[-93.239317,44.8664738],[-93.2395001,44.8665044],[-93.239535,44.8666375],[-93.2395689,44.866757],[-93.2395708,44.8667693],[-93.2394566,44.8669215],[-93.2396906,44.8678479],[-93.2397319,44.8679721],[-93.2398263,44.8681181],[-93.2400055,44.8683098],[-93.2402051,44.8683025],[-93.2413161,44.8672348],[-93.2432652,44.8653616],[-93.2432946,44.8653334],[-93.2434333,44.8652001],[-93.2437047,44.8651644],[-93.2437482,44.8651792],[-93.2442355,44.8653457],[-93.2444075,44.8657242],[-93.2444697,44.8658612],[-93.2446156,44.8660863],[-93.2447701,44.8662566],[-93.2453967,44.8667615],[-93.2456885,44.8669501],[-93.245843,44.8670839],[-93.2460404,44.8673394],[-93.2461348,44.8675037],[-93.2461949,44.867674],[-93.2462721,44.8680022],[-93.246366,44.8685686],[-93.2464588,44.8691406],[-93.2465446,44.8696729],[-93.2465779,44.8699753],[-93.2465661,44.8702432],[-93.2465634,44.8708096],[-93.246655,44.8708155],[-93.2466228,44.8729521],[-93.2466121,44.8734995],[-93.2466014,44.873796],[-93.246537,44.8744119],[-93.2464726,44.8752102],[-93.2463439,44.8765407],[-93.2461079,44.8791484],[-93.2460328,44.8803039],[-93.2459469,44.8809121],[-93.2458933,44.8811934],[-93.245786,44.8813226],[-93.2455392,44.8815659],[-93.2450242,44.8818244],[-93.244874,44.8819612],[-93.2447024,44.8820828],[-93.2445414,44.8823109],[-93.24452,44.8825314],[-93.24452,44.8827062],[-93.2445307,44.8829267],[-93.2445736,44.8830711],[-93.2445844,44.8831927],[-93.2444342,44.8833448],[-93.244241,44.8835652],[-93.2453233,44.8879872],[-93.2453834,44.8882044],[-93.2462096,44.8882348],[-93.2462847,44.8891318],[-93.246349,44.8907128],[-93.2464134,44.8912752],[-93.2464241,44.8920657],[-93.2462417,44.892727],[-93.2460915,44.8931906],[-93.2459199,44.893639],[-93.2456731,44.8939735],[-93.2452547,44.8944979],[-93.244847,44.8949387],[-93.2444178,44.8952427],[-93.244096,44.8954251],[-93.2436132,44.8955923],[-93.2428514,44.8957748],[-93.2422506,44.8958888],[-93.2414138,44.8960788],[-93.2406949,44.89617],[-93.2399868,44.8962232],[-93.2394289,44.8962536],[-93.2350837,44.8961624],[-93.2350777,44.8951109],[-93.2322198,44.8951339],[-93.2314902,44.8951415],[-93.2314952,44.896902],[-93.2272591,44.8969311],[-93.2272449,44.897017],[-93.2231808,44.8970485],[-93.2231823,44.8969774],[-93.2231861,44.8967989],[-93.2231868,44.8967623],[-93.223192,44.8965191],[-93.2231928,44.8964806],[-93.2231979,44.8962387],[-93.2229032,44.8960892],[-93.2199898,44.8961202],[-93.2196349,44.8961197],[-93.2195104,44.8961201],[-93.2188589,44.8961244],[-93.218335,44.8961224],[-93.217898,44.8961229],[-93.217826,44.896123],[-93.2172401,44.8961237],[-93.2169354,44.8961241],[-93.2153552,44.8961259],[-93.2142342,44.8961272],[-93.2130067,44.8961321],[-93.2129209,44.8961845],[-93.2079143,44.8961663],[-93.2077164,44.8962691],[-93.207557,44.8964102],[-93.2075118,44.896855],[-93.2051513,44.8969813],[-93.2051809,44.8956852],[-93.2043088,44.8950622],[-93.2042215,44.8949747],[-93.2042045,44.8948532],[-93.2042554,44.8947654],[-93.2042799,44.8947251],[-93.2051677,44.8940828],[-93.2052481,44.8940049],[-93.2052479,44.8938572],[-93.2048782,44.8937393],[-93.2024638,44.8939676],[-93.2031607,44.8929449],[-93.203192,44.8928914],[-93.2030804,44.892847],[-93.2024423,44.8925929],[-93.201838,44.8923523],[-93.2016504,44.8922776],[-93.2017916,44.8921162],[-93.2042892,44.8890558],[-93.2042779,44.8890212],[-93.2042635,44.8889768],[-93.2014516,44.8878355],[-93.2018773,44.8863316],[-93.2002767,44.885568],[-93.2000377,44.885549],[-93.1994912,44.885355],[-93.199349,44.885274],[-93.1976859,44.8845334],[-93.197437,44.8844604],[-93.1964671,44.884503],[-93.1963298,44.8846733],[-93.1943385,44.8838644],[-93.1944501,44.883682],[-93.193772,44.8834631],[-93.1928536,44.8832624],[-93.1909053,44.8824596],[-93.1928193,44.8798749],[-93.1929566,44.8798688],[-93.19336,44.8794005],[-93.193463,44.8793397],[-93.193471,44.8792484],[-93.1939266,44.8789407],[-93.194341,44.8787789],[-93.1947476,44.8786683],[-93.1952127,44.8786003],[-93.1960793,44.8774378],[-93.1959613,44.8772553],[-93.1959505,44.8771109],[-93.195895,44.8768564],[-93.1957896,44.8763734],[-93.1957565,44.8759647],[-93.1957765,44.8758514],[-93.1958276,44.8754866],[-93.1958713,44.8752023],[-93.1959768,44.8749471],[-93.1960837,44.8747297],[-93.1962753,44.8743886],[-93.1964017,44.8742132],[-93.1965928,44.8739521],[-93.1973303,44.8731299],[-93.1974558,44.8729887],[-93.1977653,44.8726596],[-93.1980699,44.8723216],[-93.1984043,44.8719548],[-93.198656,44.8716771],[-93.1989189,44.8713916],[-93.1990876,44.8711987],[-93.1994052,44.8708459]]]},"properties":{"name":"Minneapolis-Saint Paul International Airport","icao":"KMSP","iata":"MSP","faa":null,"label":"MSP"}},{"type":"Feature","geometry":{"type":"Polygon","coordinates":[[[-92.829026,44.0083765],[-92.82893,44.008376],[-92.8258119,44.0083584],[-92.8258323,44.0084159],[-92.8285353,44.0160231],[-92.8288939,44.0170321],[-92.8290528,44.0174794],[-92.8290583,44.0225523],[-92.8290915,44.0226403],[-92.830891,44.0226394],[-92.8318025,44.0252488],[-92.83183,44.025327],[-92.8321249,44.0253112],[-92.8322431,44.0253048],[-92.8335413,44.025235],[-92.8349228,44.0251608],[-92.8340204,44.0226558],[-92.8389031,44.022662],[-92.8388967,44.0212302],[-92.8388923,44.0205127],[-92.8388823,44.0188963],[-92.8388814,44.0187382],[-92.8388615,44.0155147],[-92.8388611,44.0154491],[-92.8325343,44.0154327],[-92.8308874,44.013819],[-92.8293249,44.0094513],[-92.829092,44.0088002],[-92.8290297,44.0086261],[-92.829026,44.0083765]]]},"properties":{"name":"Dodge Center Airport","icao":"KTOB","iata":null,"faa":null,"label":"KTOB"}},{"type":"Feature","geometry":{"type":"Polygon","coordinates":[[[-92.188192,43.6788589],[-92.1883175,43.6778517],[-92.1721181,43.6743909],[-92.172161,43.6739719],[-92.1697577,43.6739564],[-92.1696419,43.6773342],[-92.1776756,43.6773862],[-92.1865365,43.679357],[-92.1869797,43.6793051],[-92.1873519,43.6791708],[-92.188192,43.6788589]]]},"properties":{"name":"Fillmore County Airport","icao":"KFKA","iata":null,"faa":null,"label":"KFKA"}},{"type":"Feature","geometry":{"type":"Polygon","coordinates":[[[-93.2616414,44.121729],[-93.261732,44.119657],[-93.2621103,44.1194111],[-93.2638701,44.1185907],[-93.2649978,44.1172532],[-93.2637874,44.1165367],[-93.260228,44.1175868],[-93.2572056,44.1181034],[-93.2564925,44.1177882],[-93.2561485,44.1182169],[-93.2552556,44.1190811],[-93.2497216,44.1168936],[-93.2473435,44.1169447],[-93.2474959,44.1198755],[-93.2479598,44.1242813],[-93.2481471,44.1267565],[-93.2506658,44.1267519],[-93.2507087,44.1263515],[-93.2532183,44.1262903],[-93.2534102,44.1278286],[-93.2644824,44.127921],[-93.266948,44.1290195],[-93.268216,44.1295844],[-93.2691172,44.1287835],[-93.2719184,44.1298856],[-93.2734259,44.1282547],[-93.273573,44.1276101],[-93.2616414,44.121729]]]},"properties":{"name":"Owatonna Municipal Airport","icao":"KOWA","iata":"OWA","faa":null,"label":"OWA"}},{"type":"Feature","geometry":{"type":"Polygon","coordinates":[[[-91.7039646,44.0689483],[-91.7018618,44.0690023],[-91.7013602,44.0692046],[-91.7010598,44.0692278],[-91.7010142,44.0697809],[-91.7005636,44.0702973],[-91.7006923,44.0717542],[-91.7020361,44.0718409],[-91.7023875,44.0748837],[-91.7013575,44.075986],[-91.701564,44.076196],[-91.7017679,44.0764426],[-91.7200681,44.0837468],[-91.7211302,44.0847024],[-91.7214414,44.0847949],[-91.7221965,44.0847208],[-91.7223773,44.0847696],[-91.723893,44.0843559],[-91.7239008,44.0839595],[-91.7231658,44.0834157],[-91.7226559,44.0834236],[-91.7228496,44.0829876],[-91.7228731,44.0829192],[-91.7227917,44.08282],[-91.7226707,44.0827367],[-91.7220343,44.0825111],[-91.7219121,44.0823698],[-91.7213468,44.0821875],[-91.7211088,44.0821785],[-91.7209677,44.0821339],[-91.7207762,44.0820667],[-91.7202966,44.0818532],[-91.7196636,44.0816605],[-91.7170028,44.0805815],[-91.7169245,44.0802555],[-91.7141671,44.0790816],[-91.7120783,44.0781923],[-91.7095973,44.0763868],[-91.7098333,44.0761864],[-91.7083742,44.0751766],[-91.7091145,44.0742748],[-91.7086853,44.0737429],[-91.7087068,44.0735965],[-91.70743,44.0733267],[-91.7069365,44.0728719],[-91.7065288,44.0722861],[-91.7054458,44.0724802],[-91.7051555,44.0717388],[-91.7046661,44.0707251],[-91.7039646,44.0689483]]]},"properties":{"name":"Winona Municipal Airport","icao":"KONA","iata":"ONA","faa":null,"label":"ONA"}},{"type":"Feature","geometry":{"type":"Polygon","coordinates":[[[-93.026483,44.8616931],[-93.0263435,44.8616545],[-93.0262269,44.8615668],[-93.0261907,44.8614509],[-93.026327,44.8607177],[-93.0263419,44.8605884],[-93.026252,44.860371],[-93.0262398,44.8603147],[-93.0262516,44.859308],[-93.0297916,44.8593169],[-93.0297045,44.8552014],[-93.0294451,44.8552015],[-93.029436,44.8534246],[-93.0296906,44.8534272],[-93.0296775,44.8530292],[-93.0294185,44.8525527],[-93.0293865,44.8524112],[-93.0293029,44.8522394],[-93.0292975,44.8521354],[-93.0294253,44.8520563],[-93.0293693,44.8516124],[-93.0287869,44.8516091],[-93.028772,44.8499111],[-93.0278851,44.8498902],[-93.0277899,44.849888],[-93.0277831,44.8497762],[-93.0277293,44.8488899],[-93.0276872,44.848196],[-93.0299888,44.8482023],[-93.0313818,44.8482061],[-93.0314018,44.8499043],[-93.0319711,44.8499064],[-93.0319891,44.8516385],[-93.0321655,44.851639],[-93.0322129,44.8534339],[-93.033746,44.8534418],[-93.034378,44.853445],[-93.0343769,44.8543954],[-93.034376,44.8552351],[-93.037625,44.8552545],[-93.0376577,44.8566835],[-93.0361463,44.8566805],[-93.0362022,44.8606647],[-93.0362494,44.8625074],[-93.0363429,44.8627283],[-93.0370144,44.8636896],[-93.0374132,44.8636938],[-93.0374065,44.8653864],[-93.0350195,44.8653755],[-93.0350163,44.8647545],[-93.0350108,44.8636739],[-93.0298938,44.8636589],[-93.029865,44.8617072],[-93.026483,44.8616931]]]},"properties":{"name":"South St. Paul Municipal Airport","icao":"KSGS","iata":null,"faa":"SGS","label":"KSGS"}},{"type":"Feature","geometry":{"type":"Polygon","coordinates":[[[-96.2229376,43.6235369],[-96.2189161,43.623572],[-96.2172814,43.6235862],[-96.2174984,43.6251438],[-96.2158424,43.6251737],[-96.2155847,43.6236303],[-96.2132396,43.6236608],[-96.2132154,43.622228],[-96.2131669,43.6189192],[-96.2131484,43.6162758],[-96.2131213,43.6125003],[-96.2131183,43.6120925],[-96.2131124,43.6112667],[-96.2136538,43.6112572],[-96.2139485,43.611252],[-96.2139527,43.6092006],[-96.2155642,43.6091884],[-96.2155611,43.6090279],[-96.2155358,43.6077287],[-96.2183886,43.6077172],[-96.2184133,43.6090085],[-96.2184168,43.6091862],[-96.2184482,43.6100766],[-96.2185927,43.6141667],[-96.2186252,43.6164336],[-96.222811,43.6163993],[-96.2229376,43.6235369]]]},"properties":{"name":"Luverne Municipal Airport","icao":"KLYV","iata":null,"faa":null,"label":"KLYV"}},{"type":"Feature","geometry":{"type":"Polygon","coordinates":[[[-95.9736449,45.5713291],[-95.9737296,45.564365],[-95.9670198,45.5642914],[-95.9638441,45.5611967],[-95.9638162,45.5570635],[-95.9565055,45.55705],[-95.9558994,45.5574542],[-95.9615417,45.5614205],[-95.9638655,45.5637506],[-95.9640093,45.5713644],[-95.9736449,45.5713291]]]},"properties":{"name":"Morris Municipal Airport","icao":"KMOX","iata":"MOX","faa":null,"label":"MOX"}},{"type":"Feature","geometry":{"type":"Polygon","coordinates":[[[-95.8229259,44.4432331],[-95.8267584,44.4432424],[-95.826867,44.446553],[-95.826954,44.44946],[-95.836563,44.454865],[-95.83657,44.455207],[-95.8372167,44.4559776],[-95.8420629,44.4588294],[-95.8422775,44.4598862],[-95.8415265,44.4610195],[-95.8400888,44.4613258],[-95.8367446,44.4613067],[-95.8367232,44.4599597],[-95.833239,44.457641],[-95.83241,44.45763],[-95.829006,44.455501],[-95.823581,44.452109],[-95.819943,44.452742],[-95.818701,44.454249],[-95.816965,44.456357],[-95.817009,44.45764],[-95.816494,44.45764],[-95.81598,44.45764],[-95.815154,44.457642],[-95.81252,44.45765],[-95.80985,44.45767],[-95.8110598,44.455365],[-95.8124043,44.4431788],[-95.8168748,44.4431872],[-95.8229259,44.4432331]]]},"properties":{"name":"Southwest Minnesota Regional Airport","icao":"KMML","iata":"MML","faa":null,"label":"MML"}},{"type":"Feature","geometry":{"type":"Polygon","coordinates":[[[-93.5492829,44.0742206],[-93.5487086,44.0730774],[-93.5472672,44.0730838],[-93.5472095,44.0697341],[-93.5477266,44.0697348],[-93.547939,44.0696708],[-93.5483467,44.0695166],[-93.5486042,44.0693008],[-93.5487984,44.0691489],[-93.5490763,44.0689154],[-93.5496567,44.0687172],[-93.5500633,44.0687303],[-93.5505998,44.068792],[-93.5509227,44.0689485],[-93.5568762,44.0777412],[-93.5570478,44.0787971],[-93.5556745,44.0792056],[-93.5512696,44.0734896],[-93.5492829,44.0742206]]]},"properties":{"name":"Waseca Municipal Airport","icao":"KACQ","iata":null,"faa":null,"label":"KACQ"}},{"type":"Feature","geometry":{"type":"Polygon","coordinates":[[[-95.9875078,49.0032513],[-95.9824438,49.0033175],[-95.9760065,48.9950032],[-95.9759207,48.9930321],[-95.9799118,48.9930039],[-95.984656,49],[-95.9858286,49.0017177],[-95.9876044,49.0018225],[-95.9875078,49.0032513]]]},"properties":{"name":"Piney Pinecreek Border Airport","icao":"K48Y","iata":null,"faa":null,"label":"K48Y"}},{"type":"Feature","geometry":{"type":"Polygon","coordinates":[[[-96.4265667,45.310821],[-96.4253451,45.3110242],[-96.4231782,45.3034575],[-96.4221694,45.3041224],[-96.4214877,45.3042686],[-96.4208921,45.3038105],[-96.4228715,45.3024771],[-96.4223367,45.3005072],[-96.4233505,45.3003397],[-96.4235127,45.3002719],[-96.424197,45.2998156],[-96.4242756,45.2997228],[-96.4242908,45.2996212],[-96.4242528,45.2994929],[-96.4243668,45.2986782],[-96.4240323,45.2983787],[-96.4241691,45.2982984],[-96.4260978,45.2983145],[-96.4261029,45.2985195],[-96.4263513,45.2999065],[-96.4264298,45.3000651],[-96.4266453,45.299976],[-96.4281,45.2989973],[-96.4290505,45.2996498],[-96.4242233,45.3027461],[-96.4265667,45.310821]]]},"properties":{"name":"Ortonville Municipal Airport-Martinson Field","icao":"KVVV","iata":null,"faa":null,"label":"KVVV"}},{"type":"Feature","geometry":{"type":"Polygon","coordinates":[[[-93.9249624,44.2197541],[-93.9249555,44.2196173],[-93.9275036,44.2180766],[-93.928269,44.2176138],[-93.9273123,44.2167114],[-93.9267892,44.216218],[-93.9287701,44.214941],[-93.928769,44.2148058],[-93.9287487,44.2123111],[-93.925893,44.2137923],[-93.9245955,44.2146525],[-93.9185128,44.218685],[-93.9183922,44.2187442],[-93.9183056,44.2187445],[-93.9171865,44.2169895],[-93.9166067,44.2168006],[-93.9164672,44.2167458],[-93.9163081,44.2166207],[-93.9161527,44.2164298],[-93.9160582,44.2162735],[-93.9158356,44.2161466],[-93.9156228,44.2160624],[-93.9153796,44.2159804],[-93.9150885,44.2159651],[-93.9147677,44.2159752],[-93.9144666,44.2154582],[-93.9141073,44.215576],[-93.9137588,44.2151373],[-93.9135064,44.2148766],[-93.9131906,44.2145998],[-93.9119228,44.2133243],[-93.9115083,44.2129058],[-93.9112383,44.2125782],[-93.9104922,44.2114201],[-93.9101291,44.2108565],[-93.9101042,44.2107232],[-93.9097907,44.2107193],[-93.9097243,44.2107185],[-93.9095995,44.210717],[-93.9104857,44.2121255],[-93.9109034,44.2127894],[-93.9098601,44.2131376],[-93.9097586,44.2131714],[-93.9096932,44.2132154],[-93.9096918,44.213276],[-93.9097178,44.2133509],[-93.909726,44.2133747],[-93.9097971,44.2133925],[-93.9098715,44.2133921],[-93.909988,44.2133618],[-93.9101425,44.2133037],[-93.9109828,44.2129878],[-93.9112188,44.2133107],[-93.9112682,44.214112],[-93.9111974,44.2158945],[-93.9113905,44.2165404],[-93.9125944,44.2181761],[-93.9138581,44.2198929],[-93.9132852,44.2200636],[-93.9129419,44.2196023],[-93.9127852,44.2194931],[-93.9125599,44.2194235],[-93.912281,44.2194389],[-93.9120771,44.2194927],[-93.9119269,44.2196311],[-93.9118625,44.2198618],[-93.9118625,44.2200771],[-93.9119806,44.2202924],[-93.9121951,44.2203769],[-93.9125127,44.2203789],[-93.9130813,44.2203097],[-93.913783,44.2201924],[-93.9146048,44.2199021],[-93.9152295,44.2209097],[-93.9118166,44.2231767],[-93.9131929,44.2241363],[-93.9150383,44.2242286],[-93.916251,44.225196],[-93.920414,44.233007],[-93.922032,44.233003],[-93.923385,44.23649],[-93.929019,44.236482],[-93.929029,44.233643],[-93.9275768,44.2336161],[-93.9275497,44.2328277],[-93.9275331,44.23248],[-93.9270009,44.2324623],[-93.924113,44.228091],[-93.924132,44.223044],[-93.9288356,44.2230296],[-93.9288141,44.2197464],[-93.9249624,44.2197541]]]},"properties":{"name":"Mankato Regional Airport","icao":"KMKT","iata":"MKT","faa":null,"label":"MKT"}},{"type":"Feature","geometry":{"type":"Polygon","coordinates":[[[-91.4992265,43.5918306],[-91.507595,43.5977514],[-91.5112879,43.5977584],[-91.5113308,43.6002137],[-91.5102794,43.6002137],[-91.5090777,43.6010994],[-91.4978103,43.5928407],[-91.4992265,43.5918306]]]},"properties":{"name":"Houston County Airport","icao":"KCHU","iata":null,"faa":null,"label":"KCHU"}},{"type":"Feature","geometry":{"type":"Polygon","coordinates":[[[-94.4966422,44.3148357],[-94.4984538,44.3171985],[-94.4972162,44.3172029],[-94.4972354,44.3190164],[-94.4972495,44.3203553],[-94.4972414,44.3229548],[-94.4973786,44.3233065],[-94.4974798,44.3236796],[-94.4975755,44.3242125],[-94.4975998,44.3246014],[-94.4975815,44.3254481],[-94.497581,44.3254691],[-94.498487,44.3254804],[-94.498862,44.3257118],[-94.4988609,44.3258897],[-94.4991793,44.3258976],[-94.4991831,44.326095],[-94.4997075,44.3260939],[-94.502021,44.3260893],[-94.5060288,44.3260813],[-94.5061197,44.3260811],[-94.5075653,44.3260782],[-94.5105363,44.3260722],[-94.5072994,44.3217317],[-94.5073327,44.3172735],[-94.5068646,44.3172788],[-94.5062965,44.3172853],[-94.5056969,44.3172921],[-94.5037922,44.3173138],[-94.5024693,44.3156324],[-94.4994572,44.3118041],[-94.4971684,44.3089429],[-94.4971656,44.3088259],[-94.4971376,44.307663],[-94.4922446,44.3076717],[-94.4922488,44.3094297],[-94.4924615,44.3096663],[-94.4941899,44.3115888],[-94.4966422,44.3148357]]]},"properties":{"name":"New Ulm Municipal Airport","icao":"KULM","iata":"ULM","faa":"ULM","label":"ULM"}},{"type":"Feature","geometry":{"type":"Polygon","coordinates":[[[-96.1587448,46.2925557],[-96.1579213,46.2922358],[-96.1571655,46.2922316],[-96.1566961,46.2921768],[-96.156306,46.29208],[-96.1561476,46.2919704],[-96.1560622,46.2918483],[-96.15605,46.2917009],[-96.1559769,46.2914819],[-96.1558062,46.2914735],[-96.1556843,46.2914356],[-96.155599,46.2913597],[-96.1555807,46.2903868],[-96.1538009,46.2902773],[-96.1534595,46.2887315],[-96.1533071,46.2888115],[-96.1531182,46.2888873],[-96.152911,46.2889084],[-96.1526671,46.288921],[-96.1524599,46.2889042],[-96.152277,46.2888537],[-96.1520698,46.2887652],[-96.151186,46.2881334],[-96.1510031,46.2879607],[-96.1508995,46.2877796],[-96.1508812,46.2876111],[-96.1509117,46.2874089],[-96.1509665,46.287312],[-96.1509909,46.287173],[-96.1509726,46.2870593],[-96.1508934,46.2869582],[-96.150802,46.2868782],[-96.1500583,46.2864022],[-96.1503997,46.2861537],[-96.146901,46.2840307],[-96.1489185,46.2824637],[-96.144633,46.2796548],[-96.1452045,46.2790512],[-96.144644,46.278028],[-96.1449889,46.27773],[-96.1460972,46.2783437],[-96.1467518,46.277788],[-96.1501303,46.2800126],[-96.1555236,46.2836267],[-96.1603323,46.2802609],[-96.1602775,46.2788209],[-96.1603163,46.278706],[-96.1604602,46.2786636],[-96.1612505,46.2785587],[-96.1615187,46.2786141],[-96.1616544,46.2787835],[-96.1620539,46.2876996],[-96.1647054,46.2895528],[-96.1653576,46.2900878],[-96.165705,46.2903952],[-96.1658757,46.2906522],[-96.1644921,46.2916588],[-96.1638581,46.2918652],[-96.1603695,46.2926341],[-96.1599561,46.2926826],[-96.1595482,46.2926886],[-96.1591422,46.2926457],[-96.1587448,46.2925557]]]},"properties":{"name":"Fergus Falls Municipal Airport","icao":"KFFM","iata":"FFM","faa":null,"label":"FFM"}},{"type":"Feature","geometry":{"type":"Polygon","coordinates":[[[-95.6121978,46.6154265],[-95.6122959,46.6154632],[-95.6124298,46.6154387],[-95.6135542,46.6146234],[-95.5999985,46.6066416],[-95.5987564,46.6075906],[-95.6020371,46.6096174],[-95.6010426,46.610461],[-95.6047477,46.6126044],[-95.6056662,46.6117779],[-95.6121978,46.6154265]]]},"properties":{"name":"Perham Municipal Airport","icao":"K16D","iata":"16D","faa":null,"label":"16D"}},{"type":"Feature","geometry":{"type":"Polygon","coordinates":[[[-94.068591,45.5448977],[-94.0685378,45.5436147],[-94.068524,45.5428953],[-94.0684255,45.5377736],[-94.0681465,45.5377699],[-94.0681447,45.5375522],[-94.0681438,45.5374524],[-94.0606338,45.5374016],[-94.0604997,45.5373453],[-94.0577649,45.5373246],[-94.0553802,45.5373065],[-94.0518201,45.5372795],[-94.050377,45.5369902],[-94.0491566,45.5365017],[-94.0473837,45.5352429],[-94.0456778,45.5374505],[-94.0451977,45.5388332],[-94.0444118,45.5394645],[-94.0444182,45.5408117],[-94.0467051,45.5408171],[-94.0468158,45.54087],[-94.048132,45.541499],[-94.048133,45.5445134],[-94.0481331,45.5446853],[-94.0481492,45.5447003],[-94.0482473,45.5447],[-94.0483037,45.5479591],[-94.0486014,45.5481619],[-94.0486041,45.5488982],[-94.0483198,45.5490692],[-94.0483664,45.551718],[-94.058606,45.551819],[-94.0587348,45.5591512],[-94.0615752,45.5592094],[-94.0690477,45.5593409],[-94.0783711,45.5592245],[-94.0783695,45.5591718],[-94.0781512,45.5521533],[-94.0771453,45.5521608],[-94.0767457,45.5521327],[-94.0763058,45.5520688],[-94.075882,45.5519768],[-94.0753536,45.5518134],[-94.0748851,45.5516014],[-94.0747018,45.5515185],[-94.0746028,45.5514463],[-94.0743731,45.5512789],[-94.0736377,45.5507428],[-94.0711143,45.5489035],[-94.0698631,45.5480055],[-94.0696486,45.5478464],[-94.0687098,45.5474632],[-94.0687058,45.5469951],[-94.068591,45.5448977]]]},"properties":{"name":"Saint Cloud Regional Airport","icao":"KSTC","iata":"STC","faa":null,"label":"STC"}},{"type":"Feature","geometry":{"type":"Polygon","coordinates":[[[-95.8904465,46.830382],[-95.8905502,46.8303978],[-95.8922022,46.8306494],[-95.8922652,46.8305654],[-95.8922969,46.8297331],[-95.8923248,46.8283267],[-95.8922666,46.8281507],[-95.8923,46.8271249],[-95.8907346,46.8267485],[-95.8907139,46.8258289],[-95.8904864,46.825748],[-95.8902409,46.8253161],[-95.8902473,46.822529],[-95.8900311,46.8225312],[-95.8887389,46.8225448],[-95.8827231,46.8225785],[-95.8826946,46.8225788],[-95.8791222,46.8197591],[-95.8791336,46.8189712],[-95.8792552,46.8175845],[-95.878986,46.8175807],[-95.8789955,46.8173868],[-95.8771999,46.8173079],[-95.875779,46.8173133],[-95.8737558,46.8157537],[-95.8725812,46.8150582],[-95.8716955,46.8155711],[-95.8727585,46.8167643],[-95.8720056,46.8173396],[-95.8738966,46.818857],[-95.8705555,46.8210693],[-95.8705765,46.8211242],[-95.8734399,46.8214341],[-95.8767074,46.8217878],[-95.8774815,46.8218716],[-95.8789498,46.8230751],[-95.8792922,46.8237161],[-95.879616,46.8237241],[-95.8795934,46.8286489],[-95.8833214,46.8292442],[-95.8837469,46.8293122],[-95.8904465,46.830382]]]},"properties":{"name":"Detroit Lakes Airport","icao":"KDTL","iata":"DTL","faa":null,"label":"DTL"}},{"type":"Feature","geometry":{"type":"Polygon","coordinates":[[[-93.3082905,44.3308245],[-93.3086177,44.3310049],[-93.3095334,44.3318608],[-93.3117449,44.3340099],[-93.3179247,44.3340083],[-93.322978,44.334007],[-93.323022,44.3303751],[-93.31865,44.330346],[-93.318071,44.330341],[-93.31812,44.32675],[-93.318121,44.326715],[-93.313435,44.3267],[-93.313093,44.326699],[-93.312478,44.3266992],[-93.3089342,44.3247846],[-93.3063899,44.32338],[-93.3048573,44.3233876],[-93.3047768,44.3233723],[-93.3047178,44.3233339],[-93.3036288,44.322551],[-93.3031192,44.3226047],[-93.3031015,44.3239134],[-93.3036395,44.3248383],[-93.3031621,44.3251837],[-93.3031475,44.3260698],[-93.3031381,44.3263904],[-93.3031596,44.326604],[-93.303425,44.3272519],[-93.3043423,44.3278659],[-93.3053723,44.3286065],[-93.3069279,44.3296925],[-93.3082905,44.3308245]]]},"properties":{"name":"Faribault Municipal Airport","icao":"KFBL","iata":"FBL","faa":null,"label":"FBL"}},{"type":"Feature","geometry":{"type":"Polygon","coordinates":[[[-92.9311451,43.6619927],[-92.9300346,43.6619888],[-92.9300614,43.6602036],[-92.9300614,43.6597728],[-92.9300185,43.6592955],[-92.9294236,43.6561681],[-92.9292031,43.6549836],[-92.9291763,43.6548439],[-92.9287096,43.6524414],[-92.9285862,43.6519717],[-92.928495,43.6516845],[-92.9283717,43.6514594],[-92.9278781,43.6508422],[-92.9296967,43.6500232],[-92.9303855,43.6497471],[-92.9304745,43.6497088],[-92.9305697,43.6496663],[-92.9312027,43.6494257],[-92.9319162,43.6492549],[-92.9325505,43.6491732],[-92.9332841,43.6491151],[-92.9332144,43.6523174],[-92.9332132,43.6523881],[-92.9332104,43.6525462],[-92.9338023,43.6525416],[-92.934707,43.6525345],[-92.9348666,43.6547742],[-92.9341009,43.6547818],[-92.9343195,43.6560814],[-92.934636,43.6560844],[-92.9347111,43.6578287],[-92.9350061,43.6593112],[-92.9352918,43.660875],[-92.9362399,43.6658774],[-92.9364599,43.6670337],[-92.9390401,43.6670299],[-92.9392011,43.6671114],[-92.9392397,43.6671965],[-92.9392864,43.6719462],[-92.939294,43.6730027],[-92.9391594,43.6730031],[-92.9388295,43.6727102],[-92.9360829,43.6726908],[-92.9360687,43.6734303],[-92.9355062,43.6734318],[-92.9336984,43.6734338],[-92.9324619,43.6734338],[-92.9321695,43.673426],[-92.9307932,43.6732994],[-92.930791,43.6732264],[-92.9299635,43.6717677],[-92.9299863,43.6689466],[-92.9299863,43.6687836],[-92.9299863,43.6671034],[-92.9318478,43.667115],[-92.9318634,43.6655677],[-92.93188,43.6639214],[-92.9311236,43.6639058],[-92.9311451,43.6624584],[-92.9311451,43.6619927]]]},"properties":{"name":"Austin Municipal Airport","icao":"KAUM","iata":"AUM","faa":"AUM","label":"AUM"}},{"type":"Feature","geometry":{"type":"Polygon","coordinates":[[[-96.6727044,46.8424475],[-96.6725427,46.8424122],[-96.6724155,46.8426828],[-96.6717618,46.8425204],[-96.6714488,46.8425957],[-96.6711013,46.8427675],[-96.6708364,46.8427675],[-96.6705027,46.842584],[-96.6701037,46.8423298],[-96.6601995,46.8389625],[-96.6590227,46.838767],[-96.6588208,46.8387681],[-96.6579123,46.8397189],[-96.6568406,46.8396238],[-96.6560197,46.8393758],[-96.6558867,46.8393501],[-96.6556937,46.8393649],[-96.6552465,46.8394543],[-96.6551376,46.8395029],[-96.6549774,46.8394519],[-96.6559441,46.8381412],[-96.6555691,46.8380212],[-96.6549189,46.8389342],[-96.6542897,46.8387216],[-96.6540924,46.8390003],[-96.6533473,46.8387621],[-96.6551701,46.8360138],[-96.6553971,46.8359338],[-96.6555347,46.8359338],[-96.6580598,46.8368045],[-96.6583143,46.8367857],[-96.6585552,46.8369363],[-96.6588166,46.8370869],[-96.6622149,46.838233],[-96.6625589,46.8379694],[-96.663498,46.8382753],[-96.6634636,46.8386471],[-96.6724596,46.8417157],[-96.672463,46.8418804],[-96.6726006,46.8419345],[-96.6728105,46.8419792],[-96.6728139,46.8422098],[-96.6727044,46.8424475]]]},"properties":{"name":"Moorhead Municipal Airport","icao":"KJKJ","iata":"JKJ","faa":null,"label":"JKJ"}},{"type":"Feature","geometry":{"type":"Polygon","coordinates":[[[-92.1720971,46.8509467],[-92.1720838,46.8508236],[-92.1713621,46.8509685],[-92.170797,46.8510534],[-92.1698604,46.8510882],[-92.1697189,46.8511732],[-92.1693282,46.8511788],[-92.1693383,46.8432455],[-92.1742032,46.8431895],[-92.1743473,46.8430213],[-92.1743942,46.8428712],[-92.1744139,46.8409699],[-92.1743869,46.8392603],[-92.1742908,46.8367099],[-92.174778,46.836554],[-92.1751086,46.8364228],[-92.1768114,46.8364268],[-92.1771905,46.8365368],[-92.1799412,46.8365704],[-92.1820009,46.8365775],[-92.1824353,46.8365425],[-92.1827684,46.8364942],[-92.1830279,46.8364708],[-92.185279,46.836431],[-92.1886711,46.8326379],[-92.1896632,46.8315285],[-92.1935871,46.8331781],[-92.1926928,46.8339002],[-92.1920482,46.8344728],[-92.1917959,46.8348372],[-92.1914916,46.8355139],[-92.1914676,46.8362025],[-92.1916558,46.836703],[-92.1920225,46.8373097],[-92.1929149,46.8374625],[-92.1937117,46.8374585],[-92.1938414,46.8374601],[-92.2055758,46.8376003],[-92.2057623,46.8376132],[-92.2078902,46.8377604],[-92.2088812,46.8392439],[-92.2113091,46.8393263],[-92.2180999,46.840377],[-92.2259477,46.8406092],[-92.226188,46.840457],[-92.226244,46.8395762],[-92.2285984,46.8396562],[-92.2285423,46.8405051],[-92.2287665,46.8406973],[-92.2314492,46.8407533],[-92.2316094,46.8408735],[-92.2314893,46.8428034],[-92.2313051,46.8429155],[-92.2311369,46.8450376],[-92.2309287,46.8451577],[-92.2280138,46.8450697],[-92.226204,46.8451337],[-92.2188343,46.8449227],[-92.2182312,46.844883],[-92.2172403,46.8446849],[-92.216977,46.8446764],[-92.2167278,46.8444753],[-92.206909,46.8444838],[-92.2061644,46.8444753],[-92.2045508,46.8442466],[-92.1986182,46.8440936],[-92.1980926,46.84408],[-92.1966608,46.8440431],[-92.1956398,46.8440151],[-92.194859,46.8440631],[-92.1941142,46.8441432],[-92.1937819,46.8442113],[-92.1937419,46.8442673],[-92.1942904,46.8453004],[-92.1942504,46.8453885],[-92.1926848,46.8457688],[-92.1925527,46.8457248],[-92.1923044,46.8451803],[-92.1913872,46.8448675],[-92.1912192,46.8449949],[-92.1915791,46.8457329],[-92.1899621,46.8461652],[-92.18983,46.8463334],[-92.1899421,46.8465696],[-92.1898059,46.8467178],[-92.188849,46.8469941],[-92.1887689,46.8471382],[-92.1895203,46.8485422],[-92.187227,46.8490858],[-92.1867117,46.8487291],[-92.1863267,46.8480892],[-92.1848261,46.8474607],[-92.1843958,46.8466679],[-92.1841409,46.8465773],[-92.1823686,46.8470077],[-92.1811398,46.848378],[-92.1809076,46.848446],[-92.1804433,46.8482478],[-92.1801602,46.8482874],[-92.1768023,46.8520473],[-92.1753017,46.8522795],[-92.1720971,46.8509467]]]},"properties":{"name":"Duluth International Airport","icao":"KDLH","iata":"DLH","faa":null,"label":"DLH"}},{"type":"Feature","geometry":{"type":"Polygon","coordinates":[[[-92.8351446,47.3901713],[-92.8330807,47.3915906],[-92.8331753,47.3940862],[-92.84204,47.394098],[-92.8427733,47.3938851],[-92.8464871,47.3939147],[-92.8487462,47.3939265],[-92.8489768,47.394098],[-92.8527675,47.3942577],[-92.8529272,47.392318],[-92.8512536,47.3916616],[-92.8504789,47.3912476],[-92.8489532,47.3902364],[-92.8487225,47.3900235],[-92.8483973,47.3896095],[-92.8482731,47.3892784],[-92.8482376,47.388959],[-92.8480484,47.3864693],[-92.8481016,47.3859903],[-92.8479892,47.3847425],[-92.8470785,47.3846597],[-92.8469366,47.3852689],[-92.8413481,47.3847484],[-92.8264041,47.375529],[-92.8260907,47.3755171],[-92.8248074,47.3764574],[-92.8237134,47.3768241],[-92.8222054,47.377924],[-92.8219629,47.3789648],[-92.8241747,47.379361],[-92.8351624,47.3861204],[-92.8351446,47.3901713]]]},"properties":{"name":"Range Regional Airport","icao":"KHIB","iata":"HIB","faa":null,"label":"HIB"}},{"type":"Feature","geometry":{"type":"Polygon","coordinates":[[[-92.8481714,45.0035286],[-92.8486657,45.0034428],[-92.849049,45.0034227],[-92.849397,45.0034781],[-92.8496845,45.0036345],[-92.8515255,45.004734],[-92.852171,45.0045777],[-92.8531142,45.0035588],[-92.8534319,45.0034637],[-92.8534431,45.0034604],[-92.8534321,45.0042805],[-92.8538957,45.0042179],[-92.8539916,45.0042632],[-92.8556216,45.0038959],[-92.8555799,45.0038234],[-92.8569565,45.0034939],[-92.8576616,45.0033497],[-92.8584833,45.0031701],[-92.8593846,45.0029502],[-92.8625982,45.0023011],[-92.8625953,45.0012403],[-92.862595,45.0011225],[-92.8625876,44.9984175],[-92.8624833,44.9983392],[-92.8624847,44.9983053],[-92.862597,44.9981593],[-92.8625867,44.9979502],[-92.8626269,44.9979405],[-92.8626188,44.9976927],[-92.8626158,44.9975989],[-92.8626136,44.9975316],[-92.8625758,44.997504],[-92.8625874,44.9966589],[-92.8625893,44.9965398],[-92.862591,44.9964408],[-92.8625928,44.9963289],[-92.8625863,44.9951021],[-92.8625853,44.9949142],[-92.8625748,44.992923],[-92.8622571,44.9926937],[-92.8615916,44.9926949],[-92.8610595,44.9926654],[-92.8568714,44.9926958],[-92.8553573,44.9927012],[-92.8553065,44.9926971],[-92.8552632,44.9926936],[-92.8552194,44.99269],[-92.8519408,44.992707],[-92.8515778,44.9926727],[-92.8512753,44.9926514],[-92.8512719,44.9925862],[-92.8511949,44.9925663],[-92.8511321,44.9925431],[-92.850429,44.9921807],[-92.850252,44.9920691],[-92.8500242,44.991896],[-92.8493034,44.9913281],[-92.848411,44.9906377],[-92.8479366,44.990255],[-92.8477264,44.9901358],[-92.847498,44.9900374],[-92.8472575,44.9899714],[-92.8470375,44.9899323],[-92.8468202,44.9899152],[-92.846511,44.9899281],[-92.8463649,44.9899471],[-92.8462342,44.9899734],[-92.8460494,44.9900212],[-92.845815,44.9901093],[-92.8456324,44.9902108],[-92.845475,44.9903196],[-92.8452959,44.9904816],[-92.8451624,44.9906715],[-92.8450789,44.9908724],[-92.8450504,44.9910162],[-92.844989,44.9918316],[-92.844976,44.991952],[-92.8449359,44.9920795],[-92.8448771,44.9921933],[-92.8448066,44.992287],[-92.8447232,44.9923807],[-92.8446082,44.9924748],[-92.8444693,44.9925712],[-92.8444642,44.9927508],[-92.8471071,44.9927446],[-92.8470891,44.9931232],[-92.8474882,44.9935042],[-92.8477988,44.9937292],[-92.8487871,44.9943769],[-92.8499025,44.9951602],[-92.8512444,44.9956808],[-92.8515329,44.9963113],[-92.8518976,44.9963403],[-92.852448,44.9972061],[-92.8527778,44.9977497],[-92.8500704,45.000194],[-92.8491353,45.0009964],[-92.8491439,45.0015041],[-92.8491902,45.0015162],[-92.848237,45.0023635],[-92.8481714,45.0035286]]]},"properties":{"name":"Lake Elmo Airport","icao":null,"iata":null,"faa":"21D","label":"21D"}},{"type":"Feature","geometry":{"type":"Polygon","coordinates":[[[-95.3923256,45.8605535],[-95.3931222,45.8612039],[-95.3935998,45.8615938],[-95.3942006,45.8615973],[-95.3968086,45.8616096],[-95.3968211,45.8603448],[-95.4014085,45.8603629],[-95.4031439,45.860333],[-95.4029596,45.8674286],[-95.4029293,45.868499],[-95.4028837,45.8699706],[-95.4043393,45.8711608],[-95.4045569,45.8713484],[-95.4043916,45.8713525],[-95.4042422,45.8714044],[-95.4040106,45.8715937],[-95.403896,45.8717424],[-95.403694,45.8719017],[-95.4035777,45.872031],[-95.4033979,45.8721282],[-95.4031439,45.8723582],[-95.4029671,45.872522],[-95.4026124,45.8727631],[-95.4022798,45.8730041],[-95.4021384,45.8731589],[-95.4019923,45.8732915],[-95.4018262,45.8734204],[-95.4017476,45.8734722],[-95.4015179,45.8736236],[-95.4013763,45.8737698],[-95.4010983,45.8741777],[-95.4009117,45.8744078],[-95.4007817,45.8744991],[-95.4006976,45.8745068],[-95.4001138,45.8745529],[-95.3949919,45.8745751],[-95.3949555,45.8745755],[-95.3929005,45.8729063],[-95.3918891,45.8720884],[-95.3913693,45.8720867],[-95.3881078,45.8720762],[-95.3880234,45.8720759],[-95.3858616,45.8720685],[-95.3842558,45.8730333],[-95.3837681,45.8730394],[-95.3804919,45.8730218],[-95.38049,45.8728528],[-95.3804895,45.872807],[-95.3804864,45.8725335],[-95.3861843,45.8685158],[-95.3865625,45.8681273],[-95.3868763,45.8677463],[-95.3873657,45.8666026],[-95.3875388,45.8660168],[-95.3877209,45.8650929],[-95.3877399,45.8649055],[-95.3877346,45.8645824],[-95.3877587,45.8634337],[-95.3884451,45.8630179],[-95.3884478,45.8628723],[-95.3877748,45.8623223],[-95.3877846,45.8616336],[-95.3877882,45.8613753],[-95.3872786,45.8613697],[-95.3871786,45.8613198],[-95.3857176,45.8613211],[-95.386077,45.8609774],[-95.386254,45.8608037],[-95.3872706,45.8596456],[-95.3876997,45.8593673],[-95.3886733,45.8596643],[-95.3886626,45.8599538],[-95.3896711,45.860036],[-95.3920395,45.8603199],[-95.3923256,45.8605535]]]},"properties":{"name":"Chandler Field","icao":"KAXN","iata":"AXN","faa":"AXN","label":"AXN"}},{"type":"Feature","geometry":{"type":"Polygon","coordinates":[[[-93.7776732,43.7363237],[-93.7776212,43.746409],[-93.7731966,43.7464284],[-93.7732,43.745261],[-93.7736737,43.7453023],[-93.7740298,43.7452925],[-93.7743624,43.7452561],[-93.7752594,43.7450741],[-93.7754543,43.7449795],[-93.7755349,43.7448994],[-93.7756861,43.744863],[-93.7760892,43.7448168],[-93.7765092,43.7447489],[-93.7766839,43.7446664],[-93.7767645,43.7445984],[-93.7767343,43.7363045],[-93.7776732,43.7363237]]]},"properties":{"name":"Wells Municipal Airport","icao":null,"iata":null,"faa":"68Y","label":"68Y"}},{"type":"Feature","geometry":{"type":"Polygon","coordinates":[[[-93.5177261,47.2213743],[-93.5172317,47.221697],[-93.5160994,47.2221454],[-93.5154128,47.2221966],[-93.514032,47.2219686],[-93.5127537,47.2216458],[-93.5125795,47.2214998],[-93.5120671,47.2213102],[-93.5110782,47.2210233],[-93.510074,47.2204546],[-93.5097512,47.2201548],[-93.5094503,47.219381],[-93.5075259,47.21905],[-93.5041275,47.2181119],[-93.5027955,47.2189921],[-93.5010681,47.2201334],[-93.500956,47.2202075],[-93.5004518,47.2198476],[-93.499506,47.2191725],[-93.4999511,47.2180139],[-93.5000748,47.2176918],[-93.5002182,47.2176303],[-93.5030102,47.215732],[-93.5042228,47.2147135],[-93.5044611,47.2139808],[-93.5044265,47.2139001],[-93.5071049,47.213991],[-93.508,47.2134371],[-93.5080873,47.2129702],[-93.5083115,47.2118033],[-93.508417,47.2112025],[-93.5085292,47.2105633],[-93.5084139,47.2102572],[-93.5078683,47.2088047],[-93.5075596,47.2079875],[-93.5069058,47.2062976],[-93.5066576,47.2056156],[-93.5062899,47.2046972],[-93.5058687,47.2035216],[-93.5057234,47.2031928],[-93.5057039,47.2030628],[-93.5055952,47.2027503],[-93.5045174,47.1998891],[-93.5052583,47.199554],[-93.5056767,47.1987742],[-93.5051649,47.1965831],[-93.5090435,47.1959171],[-93.5092382,47.1964679],[-93.5099683,47.1984353],[-93.5103679,47.1983649],[-93.5120076,47.2027181],[-93.5141632,47.208446],[-93.5171926,47.2079426],[-93.5171492,47.2098211],[-93.5179372,47.2097668],[-93.51791,47.2118644],[-93.5174299,47.2118626],[-93.5173951,47.2118892],[-93.5167378,47.2123302],[-93.5172275,47.2136079],[-93.5174194,47.2138986],[-93.5174176,47.2139294],[-93.5177545,47.2139312],[-93.5178705,47.2143424],[-93.5178487,47.2155163],[-93.5175721,47.2155163],[-93.5175685,47.215654],[-93.5175679,47.2156782],[-93.5175626,47.2158841],[-93.5175751,47.2159079],[-93.5175696,47.2160482],[-93.5175603,47.2162841],[-93.5176865,47.2162863],[-93.5178414,47.2162891],[-93.5177799,47.2188253],[-93.5177082,47.2199499],[-93.5177261,47.2213743]]]},"properties":{"name":"Grand Rapids - Itasca County Airport","icao":"KGPZ","iata":"GPZ","faa":null,"label":"GPZ"}},{"type":"Feature","geometry":{"type":"Polygon","coordinates":[[[-94.0923669,43.5919405],[-94.0906374,43.5881317],[-94.0892104,43.5884736],[-94.0893821,43.5889165],[-94.0884723,43.5899096],[-94.0904872,43.5944026],[-94.0897683,43.5945114],[-94.0895344,43.5947041],[-94.0894804,43.5947064],[-94.0882363,43.5947584],[-94.0874638,43.594976],[-94.0875153,43.5977126],[-94.0892383,43.5976586],[-94.0894436,43.600756],[-94.0909028,43.6007205],[-94.091721,43.600059],[-94.0929953,43.5991098],[-94.0947524,43.5994173],[-94.0955202,43.5992176],[-94.0950469,43.5981011],[-94.0959267,43.597969],[-94.0959803,43.5977281],[-94.097654,43.5977281],[-94.0976004,43.5963296],[-94.0958752,43.5963591],[-94.0958516,43.5959799],[-94.097139,43.5946512],[-94.0959578,43.5942652],[-94.0942337,43.5961104],[-94.0926544,43.5928874],[-94.0937166,43.5926465],[-94.0932874,43.5917684],[-94.0923669,43.5919405]]]},"properties":{"name":"Blue Earth Municipal Airport","icao":"KSBU","iata":null,"faa":"SBU","label":"KSBU"}},{"type":"Feature","geometry":{"type":"Polygon","coordinates":[[[-96.5418549,48.5815578],[-96.5411021,48.5815785],[-96.540616,48.5738487],[-96.5413687,48.573828],[-96.5418549,48.5815578]]]},"properties":{"name":"Karlstad Municipal Airport","icao":null,"iata":null,"faa":"23D","label":"23D"}},{"type":"Feature","geometry":{"type":"Polygon","coordinates":[[[-92.4809577,47.423994],[-92.48013,47.422601],[-92.4951681,47.4227216],[-92.4993999,47.422954],[-92.5091799,47.423491],[-92.5067498,47.4271152],[-92.5049903,47.430454],[-92.4952914,47.4297427],[-92.4953558,47.4245747],[-92.4809577,47.423994]]]},"properties":{"name":"Eveleth-Virginia Municipal Airport","icao":"KEVM","iata":"EVM","faa":null,"label":"EVM"}},{"type":"Feature","geometry":{"type":"Polygon","coordinates":[[[-93.237764,44.6298024],[-93.2378445,44.6300696],[-93.2378678,44.6302603],[-93.2378713,44.6310813],[-93.2378732,44.6321118],[-93.2378552,44.6321691],[-93.2378034,44.6322225],[-93.2376908,44.6322416],[-93.2354109,44.6322225],[-93.2352269,44.6321996],[-93.2350032,44.6321386],[-93.2313001,44.6308064],[-93.2311301,44.6307566],[-93.2309139,44.6307148],[-93.2307691,44.6306957],[-93.2302289,44.6306841],[-93.226227,44.6306764],[-93.2254112,44.6306821],[-93.2226386,44.6307014],[-93.2179173,44.6307342],[-93.2179153,44.6261672],[-93.2174995,44.6261678],[-93.2076967,44.6261816],[-93.2077789,44.6197797],[-93.2137991,44.6197488],[-93.2176986,44.6197288],[-93.2176373,44.6211724],[-93.2181049,44.6211918],[-93.2215907,44.6225425],[-93.2216031,44.6233565],[-93.2216056,44.6235171],[-93.2279835,44.6234651],[-93.2279764,44.6240053],[-93.229666,44.6240058],[-93.2296651,44.6242245],[-93.2322585,44.6242363],[-93.232278,44.623467],[-93.2353622,44.623512],[-93.237764,44.6298024]]]},"properties":{"name":"Airlake Airport","icao":"KLVN","iata":null,"faa":null,"label":"KLVN"}},{"type":"Feature","geometry":{"type":"Polygon","coordinates":[[[-91.7489868,47.0540149],[-91.7514895,47.0529354],[-91.7519695,47.0527283],[-91.7514266,47.052125],[-91.750079,47.0506138],[-91.7493945,47.0498482],[-91.7614108,47.0449209],[-91.759823,47.0431224],[-91.7574242,47.0441746],[-91.7523308,47.0464087],[-91.7470557,47.0487224],[-91.7415625,47.0429323],[-91.740275,47.0434441],[-91.7459184,47.0490879],[-91.7392451,47.0514418],[-91.7373046,47.0509785],[-91.7313873,47.0509394],[-91.7313914,47.0515266],[-91.7336396,47.0515709],[-91.733603,47.0521609],[-91.7331924,47.0522551],[-91.732798,47.052208],[-91.7324145,47.0518673],[-91.7315034,47.0518398],[-91.7313857,47.0543854],[-91.7490298,47.0544242],[-91.7489868,47.0540149]]]},"properties":{"name":"Richard B Helgeson Airport","icao":"KTWM","iata":null,"faa":null,"label":"KTWM"}},{"type":"Feature","geometry":{"type":"Polygon","coordinates":[[[-93.9487072,44.0357187],[-93.9474683,44.0357155],[-93.9474671,44.0352914],[-93.9483591,44.0352971],[-93.9483879,44.0293054],[-93.948747,44.0293054],[-93.9487072,44.0357187]]]},"properties":{"name":"Hoppe Sky Ranch Airport","icao":null,"iata":null,"faa":"93MN","label":"93MN"}},{"type":"Feature","geometry":{"type":"Polygon","coordinates":[[[-95.7007349,48.8640831],[-95.7007268,48.863799],[-95.700767,48.8637143],[-95.7010326,48.8636014],[-95.7023442,48.8635361],[-95.7023388,48.8627756],[-95.7019284,48.8626988],[-95.6985569,48.8529744],[-95.6985569,48.8528968],[-95.6986535,48.8528138],[-95.700362,48.8523285],[-95.7004264,48.852272],[-95.7004318,48.8521908],[-95.7002869,48.8516984],[-95.7003379,48.8514954],[-95.7003352,48.8512942],[-95.7003808,48.8512572],[-95.7004747,48.8512183],[-95.7013088,48.8510754],[-95.7013786,48.851026],[-95.7013786,48.850943],[-95.7012981,48.8503217],[-95.7013223,48.8500288],[-95.7014054,48.8496122],[-95.7014591,48.8495451],[-95.7015529,48.849494],[-95.7020009,48.8494092],[-95.7022208,48.8494604],[-95.7022181,48.8490333],[-95.7006705,48.8494145],[-95.7001931,48.8492274],[-95.6983316,48.8495399],[-95.6963146,48.8500482],[-95.6961966,48.8501241],[-95.6960973,48.8505512],[-95.6960142,48.8506483],[-95.6951505,48.8508636],[-95.6951183,48.8509395],[-95.6951907,48.851296],[-95.6951532,48.8513825],[-95.6950378,48.8514743],[-95.691905,48.8519578],[-95.691956,48.8483935],[-95.6915242,48.8483908],[-95.6915751,48.8537421],[-95.6956172,48.8526197],[-95.6995815,48.8635079],[-95.6997907,48.8638255],[-95.7000804,48.8640972],[-95.7003164,48.864196],[-95.7005096,48.8642137],[-95.7006758,48.8641731],[-95.7007349,48.8640831]]]},"properties":{"name":"Roseau Municipal Airport","icao":"KROX","iata":"ROX","faa":null,"label":"ROX"}},{"type":"Feature","geometry":{"type":"Polygon","coordinates":[[[-94.3770247,44.854565],[-94.3783733,44.856458],[-94.3765966,44.8570672],[-94.3789805,44.8608119],[-94.382889,44.8661761],[-94.3847355,44.8655138],[-94.3851303,44.8660697],[-94.3875057,44.8653366],[-94.3857633,44.8628515],[-94.379194,44.8539459],[-94.3770247,44.854565]]]},"properties":{"name":"Hutchinson Municipal Airport","icao":"KHCD","iata":null,"faa":null,"label":"KHCD"}},{"type":"Feature","geometry":{"type":"Polygon","coordinates":[[[-93.6875686,46.5460566],[-93.6875126,46.5446434],[-93.6865412,46.5446434],[-93.6865412,46.5437826],[-93.6778056,46.5441102],[-93.6704391,46.5443864],[-93.6704569,46.5444312],[-93.6751764,46.556315],[-93.6757019,46.5576382],[-93.676398,46.5593907],[-93.6795736,46.559288],[-93.6771314,46.5529319],[-93.6748849,46.5470844],[-93.6783606,46.5469788],[-93.6809103,46.5469013],[-93.682249,46.5468606],[-93.6827845,46.5468443],[-93.684236,46.5468002],[-93.6862984,46.5467375],[-93.686261,46.5461209],[-93.6875686,46.5460566]]]},"properties":{"name":"Aitkin Municipal Airport","icao":"KAIT","iata":null,"faa":"AIT","label":"KAIT"}},{"type":"Feature","geometry":{"type":"Polygon","coordinates":[[[-92.9964089,45.2518078],[-92.9899612,45.247086],[-92.9896446,45.2473146],[-92.9886735,45.2465766],[-92.9850934,45.2465483],[-92.9847704,45.2430428],[-92.988863,45.2431241],[-92.9986321,45.2505991],[-92.9964089,45.2518078]]]},"properties":{"name":"Forest Lake Airport","icao":null,"iata":null,"faa":"25D","label":"25D"}},{"type":"Feature","geometry":{"type":"Polygon","coordinates":[[[-92.8621229,48.0197695],[-92.8510188,48.0114142],[-92.8497125,48.0120737],[-92.8501623,48.01242],[-92.8508401,48.0123458],[-92.8587202,48.0183359],[-92.8567456,48.0194121],[-92.8594279,48.0212365],[-92.8621229,48.0197695]]]},"properties":{"name":"Orr Regional Airport","icao":"KORB","iata":null,"faa":"ORB","label":"KORB"}},{"type":"Feature","geometry":{"type":"Polygon","coordinates":[[[-92.6947067,47.8266909],[-92.6901376,47.8236655],[-92.6865327,47.823932],[-92.6860499,47.8234422],[-92.6877344,47.8224625],[-92.6836531,47.8205673],[-92.6809721,47.8208742],[-92.6780512,47.818337],[-92.6800519,47.8173343],[-92.683942,47.8173649],[-92.6902449,47.821209],[-92.6967359,47.8201068],[-92.6969612,47.8216773],[-92.6938176,47.8226426],[-92.6934743,47.8233341],[-92.696422,47.82599],[-92.6947067,47.8266909]]]},"properties":{"name":"Cook Municipal Airport","icao":"KCQM","iata":null,"faa":"CQM","label":"KCQM"}},{"type":"Feature","geometry":{"type":"Polygon","coordinates":[[[-93.8690519,47.5580249],[-93.8674986,47.558193],[-93.865251,47.5584355],[-93.8642693,47.5585731],[-93.8642096,47.5586496],[-93.8642961,47.5587505],[-93.8648003,47.5590147],[-93.8650578,47.5590509],[-93.8655621,47.5591016],[-93.8753414,47.5580301],[-93.8814086,47.5578889],[-93.8813227,47.5566472],[-93.873893,47.5574581],[-93.8738555,47.556944],[-93.8734907,47.556915],[-93.8731366,47.5569404],[-93.8721603,47.5570743],[-93.8722622,47.5576174],[-93.8690519,47.5580249]]]},"properties":{"name":"Bowstring Municipal Airport","icao":null,"iata":null,"faa":"9Y0","label":"9Y0"}},{"type":"Feature","geometry":{"type":"Polygon","coordinates":[[[-95.708878,44.9737775],[-95.7079017,44.97325],[-95.7109943,44.970453],[-95.7073116,44.9672574],[-95.7056594,44.9653805],[-95.704785,44.9649839],[-95.7047045,44.9647448],[-95.7035351,44.963534],[-95.7034439,44.9633594],[-95.7043558,44.9624826],[-95.7052463,44.9631696],[-95.7056353,44.9632038],[-95.7058632,44.9632436],[-95.706287,44.9635055],[-95.710541,44.9672346],[-95.7110453,44.967785],[-95.7110775,44.9679709],[-95.7123274,44.9692367],[-95.7144249,44.9673523],[-95.7148325,44.9675003],[-95.7155138,44.9679482],[-95.7158679,44.9685934],[-95.7160395,44.9686237],[-95.7163373,44.9686199],[-95.7161522,44.9742822],[-95.7156385,44.9742813],[-95.7118177,44.9710849],[-95.708878,44.9737775]]]},"properties":{"name":"Montevideo-Chippewa County Airport","icao":"KMVE","iata":"MVE","faa":null,"label":"MVE"}},{"type":"Feature","geometry":{"type":"Polygon","coordinates":[[[-95.1446915,45.1267259],[-95.1436025,45.1266464],[-95.1430982,45.1265291],[-95.1427769,45.1263984],[-95.1422993,45.1261136],[-95.1410675,45.1253828],[-95.1389033,45.1238418],[-95.1379001,45.12338],[-95.1340002,45.1208477],[-95.1342255,45.120685],[-95.1309532,45.1187242],[-95.1301432,45.1194926],[-95.1295799,45.1199014],[-95.1292849,45.1200112],[-95.1240921,45.1199355],[-95.1231158,45.1181829],[-95.1215762,45.119557],[-95.121367,45.1196251],[-95.1204068,45.119803],[-95.1202458,45.1197765],[-95.1201385,45.119697],[-95.120101,45.1195759],[-95.1200366,45.1190346],[-95.1199508,45.1187848],[-95.1241726,45.1146737],[-95.1242477,45.1144655],[-95.124253,45.1142308],[-95.1240867,45.1140718],[-95.1235879,45.1138295],[-95.1201654,45.1119745],[-95.1220483,45.1102406],[-95.1243281,45.1115543],[-95.1243657,45.1121562],[-95.1246768,45.1121184],[-95.124945,45.1119253],[-95.1252186,45.111842],[-95.1253849,45.1118231],[-95.125621,45.1118685],[-95.1258195,45.1119253],[-95.1262862,45.1121752],[-95.126769,45.111914],[-95.1274127,45.1113044],[-95.1293331,45.112179],[-95.1296014,45.1122055],[-95.1297838,45.1121676],[-95.130052,45.1114294],[-95.130508,45.1109524],[-95.1305777,45.1101195],[-95.1329756,45.1101497],[-95.1329327,45.1115467],[-95.1332384,45.1117398],[-95.1337695,45.1118837],[-95.1330721,45.1132617],[-95.1330721,45.1135532],[-95.1332545,45.1137273],[-95.1338768,45.1140453],[-95.1349926,45.1142157],[-95.1352286,45.1145034],[-95.134939,45.1148479],[-95.1350677,45.1149614],[-95.1349872,45.1150296],[-95.1377714,45.1167123],[-95.1377928,45.1189551],[-95.139944,45.1202497],[-95.1446432,45.1232286],[-95.1446915,45.1267259]]]},"properties":{"name":"Willmar Municipal -John L Rice Field","icao":"KBDH","iata":"ILL","faa":null,"label":"ILL"}},{"type":"Feature","geometry":{"type":"Polygon","coordinates":[[[-94.4275063,43.6517892],[-94.4275224,43.6501628],[-94.4152057,43.6412929],[-94.4157851,43.6404466],[-94.4160962,43.6396081],[-94.4159567,43.6376747],[-94.4144118,43.6376902],[-94.4143796,43.6392897],[-94.4102866,43.6364129],[-94.4099218,43.6366963],[-94.4088167,43.635881],[-94.4076526,43.6353375],[-94.4076634,43.6361683],[-94.407481,43.6361334],[-94.4063947,43.6353763],[-94.4061399,43.6355549],[-94.4023338,43.6329051],[-94.4018054,43.6332894],[-94.4055793,43.6359635],[-94.4053285,43.6361547],[-94.4064215,43.6369244],[-94.4056544,43.637499],[-94.4077063,43.6389403],[-94.407827,43.6389656],[-94.4080281,43.6390684],[-94.408983,43.6398721],[-94.4095731,43.6405514],[-94.4098252,43.6407397],[-94.4107425,43.6412036],[-94.411574,43.6417083],[-94.4125342,43.6423527],[-94.4077599,43.6486898],[-94.4077384,43.6488198],[-94.4077921,43.6489207],[-94.408055,43.6490256],[-94.4084224,43.6491401],[-94.4087121,43.6491886],[-94.4090152,43.6491847],[-94.4092459,43.6491517],[-94.4094229,43.6491012],[-94.4095248,43.6490061],[-94.4099164,43.6482104],[-94.41008,43.6479193],[-94.4112682,43.6462696],[-94.4121051,43.6456058],[-94.41273,43.6449129],[-94.4131511,43.6443306],[-94.4136581,43.6435581],[-94.4138673,43.6433562],[-94.4165951,43.6452215],[-94.4195294,43.6472827],[-94.419685,43.6475661],[-94.4197038,43.6480338],[-94.4197279,43.6484258],[-94.4196957,43.648618],[-94.419634,43.6487577],[-94.4194892,43.6488916],[-94.4193698,43.6488266],[-94.4192626,43.6488295],[-94.4190252,43.6489877],[-94.4186926,43.6489557],[-94.4184619,43.6490139],[-94.4182554,43.6493904],[-94.41836,43.6497281],[-94.4185236,43.6499164],[-94.4189259,43.6502114],[-94.4190305,43.6503919],[-94.4190574,43.6514282],[-94.421804,43.6514204],[-94.421804,43.6518396],[-94.4275063,43.6517892]]]},"properties":{"name":"Fairmont Municipal Airport","icao":"KFRM","iata":"FRM","faa":null,"label":"FRM"}},{"type":"Feature","geometry":{"type":"Polygon","coordinates":[[[-92.0476591,46.7269514],[-92.0476738,46.7268753],[-92.0476974,46.7268733],[-92.0476991,46.7268386],[-92.0477011,46.726799],[-92.0475728,46.7267975],[-92.0475247,46.7267699],[-92.047515,46.7265901],[-92.0475079,46.7264583],[-92.047526,46.726297],[-92.047455,46.7262072],[-92.0475034,46.7259584],[-92.0474893,46.7259024],[-92.0475027,46.7257867],[-92.047615,46.7256423],[-92.0476943,46.7255359],[-92.0479787,46.7257594],[-92.0480244,46.7257758],[-92.0480864,46.7257782],[-92.0483621,46.7256485],[-92.0484547,46.7255788],[-92.0484368,46.7254521],[-92.0483986,46.7253673],[-92.048186,46.725192],[-92.0479349,46.7249682],[-92.0478268,46.7248719],[-92.0477972,46.7247958],[-92.0478128,46.7247241],[-92.0478773,46.724654],[-92.0478737,46.7246151],[-92.0478338,46.7245774],[-92.0477785,46.724558],[-92.0477208,46.7245497],[-92.0476174,46.7245611],[-92.0475317,46.7245903],[-92.0473598,46.7245122],[-92.0465878,46.7237898],[-92.0458285,46.7230951],[-92.0452689,46.7225626],[-92.0445026,46.7218546],[-92.0435969,46.7210266],[-92.0432899,46.7206865],[-92.0429232,46.720344],[-92.0424712,46.7199305],[-92.0421235,46.7196515],[-92.0410415,46.7186743],[-92.0409279,46.7185961],[-92.0408778,46.7185751],[-92.0408184,46.7185629],[-92.0407519,46.7185706],[-92.0406904,46.7185888],[-92.0404723,46.7186828],[-92.0401736,46.7188729],[-92.0399445,46.7186787],[-92.0397263,46.718496],[-92.0396002,46.7183891],[-92.0394252,46.7183159],[-92.0392632,46.718297],[-92.0388321,46.7180297],[-92.0384158,46.717854],[-92.0380757,46.7177791],[-92.0379059,46.7177014],[-92.037727,46.7177954],[-92.0372824,46.7180144],[-92.0373195,46.7181175],[-92.0373456,46.7182126],[-92.0384739,46.7190826],[-92.038922,46.7194219],[-92.039032,46.7195052],[-92.0399425,46.7202201],[-92.0401181,46.7208483],[-92.0409139,46.7214628],[-92.0411624,46.7217646],[-92.0412888,46.7218993],[-92.0415716,46.7222202],[-92.0416723,46.7223373],[-92.0418947,46.7225667],[-92.0420858,46.7224852],[-92.0421161,46.7224704],[-92.0424805,46.7228258],[-92.0426609,46.7229919],[-92.0433385,46.7235989],[-92.0439473,46.7241505],[-92.0442151,46.7244114],[-92.044352,46.7245497],[-92.0444005,46.7246047],[-92.0444469,46.7247994],[-92.0444951,46.7250137],[-92.0445489,46.7251373],[-92.0445847,46.725195],[-92.044724,46.7253641],[-92.0449373,46.7255973],[-92.0451293,46.7257857],[-92.0452804,46.7259122],[-92.0454214,46.726023],[-92.0456854,46.7262202],[-92.0458699,46.7263657],[-92.0459125,46.7263848],[-92.0466649,46.7269465],[-92.0462659,46.7272186],[-92.0465679,46.7273979],[-92.0468688,46.7271906],[-92.0468952,46.7271737],[-92.0469039,46.7271682],[-92.0469442,46.7271405],[-92.0471926,46.7269876],[-92.0472392,46.7269882],[-92.0475639,46.7269995],[-92.0476591,46.7269514]]]},"properties":{"name":"Sky Harbor Airport","icao":"KDYT","iata":null,"faa":"DYT","label":"KDYT"}},{"type":"Feature","geometry":{"type":"Polygon","coordinates":[[[-95.5879705,43.6491911],[-95.5871054,43.6491718],[-95.5871317,43.6508167],[-95.5855286,43.6508642],[-95.5854235,43.6563878],[-95.5898516,43.6580704],[-95.587539,43.6608937],[-95.585503,43.6601101],[-95.5855655,43.6618058],[-95.5853687,43.6618037],[-95.585198,43.6618018],[-95.5845264,43.6617945],[-95.584503,43.6643209],[-95.5843361,43.6643209],[-95.5829823,43.6643209],[-95.5825263,43.6643209],[-95.5825258,43.6641978],[-95.5825029,43.6580866],[-95.5688067,43.6534118],[-95.5684941,43.6539771],[-95.5654705,43.6530104],[-95.5656815,43.6526034],[-95.5631993,43.6518993],[-95.5621344,43.6515972],[-95.5626031,43.6504156],[-95.555085,43.6479651],[-95.5549683,43.6479271],[-95.5548388,43.6478849],[-95.5553471,43.6471893],[-95.5629268,43.6498037],[-95.5632362,43.6493001],[-95.5635617,43.6494019],[-95.5648715,43.6498117],[-95.5655345,43.6491162],[-95.5750147,43.652426],[-95.5757238,43.6519844],[-95.5771362,43.652458],[-95.5820992,43.6524139],[-95.58202,43.6478849],[-95.5814012,43.6478689],[-95.5813902,43.6463978],[-95.585158,43.6464937],[-95.5851801,43.6476291],[-95.5854894,43.6476291],[-95.5867601,43.6468136],[-95.5884841,43.6467576],[-95.588511,43.6488243],[-95.5879659,43.6488279],[-95.5879705,43.6491911]]]},"properties":{"name":"Worthington Municipal Airport","icao":"KOTG","iata":"OTG","faa":null,"label":"OTG"}},{"type":"Feature","geometry":{"type":"Polygon","coordinates":[[[-93.9914255,45.2380922],[-93.991362,45.2360661],[-93.991325,45.2353547],[-93.9909653,45.2351908],[-93.9873211,45.2351088],[-93.9864484,45.2356824],[-93.9812121,45.2348891],[-93.9783665,45.2344608],[-93.9782342,45.2347811],[-93.9765364,45.234539],[-93.9766898,45.2351237],[-93.9811645,45.2358873],[-93.9860597,45.2366157],[-93.9860963,45.2382244],[-93.9870566,45.23823],[-93.9902936,45.2382188],[-93.9914255,45.2380922]]]},"properties":{"name":"Maple Lake Municipal Airport","icao":"KMGG","iata":"MGG","faa":null,"label":"MGG"}},{"type":"Feature","geometry":{"type":"Polygon","coordinates":[[[-94.5593356,43.9932266],[-94.5593731,43.9893556],[-94.5566587,43.986017],[-94.5549421,43.9860218],[-94.5548643,43.986022],[-94.5533194,43.986022],[-94.5494221,43.9860247],[-94.5494243,43.9858008],[-94.5494588,43.9823308],[-94.5494609,43.9821146],[-94.5494811,43.9800843],[-94.5494848,43.9798294],[-94.5494972,43.978988],[-94.549626,43.9789883],[-94.5531397,43.9789957],[-94.5531182,43.9801229],[-94.5531987,43.9804355],[-94.553542,43.9803853],[-94.5538585,43.9804818],[-94.5540631,43.9807324],[-94.5546149,43.9814083],[-94.5548885,43.9812963],[-94.5592711,43.9866137],[-94.5618461,43.9897377],[-94.5629941,43.9907566],[-94.5639554,43.9915902],[-94.5642045,43.9918062],[-94.565789,43.9931802],[-94.5593356,43.9932266]]]},"properties":{"name":"Saint James Municipal Airport","icao":"KJYG","iata":null,"faa":null,"label":"KJYG"}},{"type":"Feature","geometry":{"type":"Polygon","coordinates":[[[-94.13698,44.2215695],[-94.1369803,44.2215318],[-94.137019,44.215636],[-94.1372467,44.2156337],[-94.137215,44.2207307],[-94.1372097,44.2215683],[-94.13698,44.2215695]]]},"properties":{"name":"Michels Farms Airport","icao":null,"iata":null,"faa":"MN46","label":"MN46"}},{"type":"Feature","geometry":{"type":"Polygon","coordinates":[[[-96.2963433,43.9857261],[-96.2953109,43.9861858],[-96.2964441,43.9878387],[-96.2966005,43.9878426],[-96.2985134,43.9878898],[-96.2984416,43.9896983],[-96.3000419,43.9897922],[-96.3006397,43.9845178],[-96.3051635,43.9847832],[-96.3058072,43.984821],[-96.3059139,43.9838788],[-96.3003764,43.9835539],[-96.3014496,43.9740825],[-96.300148,43.9740061],[-96.2990772,43.9834559],[-96.2961028,43.9832814],[-96.2960237,43.9839795],[-96.2963703,43.9840339],[-96.2964698,43.9840612],[-96.2965641,43.9840968],[-96.296652,43.9841401],[-96.2967328,43.984191],[-96.2968047,43.9842486],[-96.2968665,43.9843118],[-96.297183,43.9846515],[-96.2971927,43.9846793],[-96.2971954,43.9847079],[-96.2971911,43.9847364],[-96.2971792,43.9847652],[-96.2971602,43.9847918],[-96.2971348,43.9848156],[-96.2960216,43.9854119],[-96.2963433,43.9857261]]]},"properties":{"name":"Pipestone Municipal Airport","icao":"KPQN","iata":null,"faa":null,"label":"KPQN"}},{"type":"Feature","geometry":{"type":"Polygon","coordinates":[[[-93.6106548,45.5680803],[-93.609276,45.5682038],[-93.6091326,45.564976],[-93.6055257,45.5648138],[-93.6043344,45.565725],[-93.6018635,45.5644508],[-93.602382,45.5576005],[-93.6032313,45.5556001],[-93.6014003,45.5553993],[-93.6014003,45.5545652],[-93.6028122,45.5545729],[-93.6014775,45.5516995],[-93.6040476,45.5516609],[-93.606022,45.5522248],[-93.6064988,45.5548505],[-93.6136339,45.5677901],[-93.6106548,45.5680803]]]},"properties":{"name":"Princeton Municipal Airport","icao":"KPNM","iata":null,"faa":null,"label":"KPNM"}},{"type":"Feature","geometry":{"type":"Polygon","coordinates":[[[-94.0909535,44.7573087],[-94.0894032,44.7573087],[-94.0881654,44.7566484],[-94.0863494,44.7556796],[-94.0861255,44.7555602],[-94.0861148,44.7565697],[-94.0846664,44.756684],[-94.0830025,44.7557277],[-94.0823091,44.7553293],[-94.0776336,44.7526422],[-94.0761906,44.7518879],[-94.076153,44.7522688],[-94.0757614,44.7520593],[-94.0741307,44.7536174],[-94.0752089,44.7536365],[-94.0754718,44.7536784],[-94.0759975,44.7539374],[-94.0807466,44.7564767],[-94.0810384,44.7566327],[-94.0822293,44.7573565],[-94.0836006,44.7580805],[-94.0859699,44.7593314],[-94.0859753,44.7609007],[-94.0908784,44.7609007],[-94.0909098,44.7593963],[-94.0909487,44.7575374],[-94.0909535,44.7573087]]]},"properties":{"name":"Glencoe Municipal Airport","icao":"KGYL","iata":null,"faa":null,"label":"KGYL"}},{"type":"Feature","geometry":{"type":"Polygon","coordinates":[[[-95.0792182,46.8925201],[-95.0621452,46.8926555],[-95.0603992,46.8998205],[-95.0635608,46.9000977],[-95.0635588,46.9012157],[-95.0672209,46.9020954],[-95.0688803,46.9035028],[-95.0694382,46.9071189],[-95.0775205,46.9070505],[-95.0797235,46.9086142],[-95.0796949,46.9106762],[-95.0846302,46.910725],[-95.0846874,46.9071678],[-95.0848877,46.9069039],[-95.0848734,46.8997789],[-95.0793945,46.8998082],[-95.0792182,46.8925201]]]},"properties":{"name":"Park Rapids Municipal Airport","icao":"KPKD","iata":"PKD","faa":null,"label":"PKD"}},{"type":"Feature","geometry":{"type":"Polygon","coordinates":[[[-96.6286374,47.8460872],[-96.6305481,47.8448976],[-96.6305644,47.8448049],[-96.6230189,47.839746],[-96.6228156,47.8396914],[-96.6226693,47.8394567],[-96.6227424,47.8371317],[-96.6216285,47.8371481],[-96.6215716,47.8384198],[-96.6214496,47.8384962],[-96.6212382,47.8384853],[-96.6211325,47.8384525],[-96.6211488,47.8378685],[-96.6207504,47.8380377],[-96.6206365,47.8380487],[-96.6204902,47.8379941],[-96.6156604,47.8348067],[-96.6153758,47.8348285],[-96.6150506,47.8349322],[-96.6142619,47.8355053],[-96.614205,47.8356472],[-96.6143351,47.8357345],[-96.6145871,47.8359638],[-96.6146928,47.836122],[-96.6146928,47.8362421],[-96.6144326,47.8364604],[-96.6144489,47.8365805],[-96.6145302,47.8366678],[-96.6171077,47.838387],[-96.6171158,47.8386108],[-96.6165873,47.8390201],[-96.6164084,47.8390474],[-96.6160995,47.8389765],[-96.615636,47.8390092],[-96.6152701,47.8391456],[-96.6149937,47.8394567],[-96.6157498,47.839997],[-96.6157905,47.8401553],[-96.6156197,47.840319],[-96.6145383,47.8411867],[-96.6143676,47.8415851],[-96.614083,47.841727],[-96.6139285,47.8416888],[-96.6137984,47.8414378],[-96.6138553,47.8411103],[-96.6140749,47.8409084],[-96.6141724,47.8403627],[-96.6141318,47.8398933],[-96.6136602,47.8395004],[-96.6134894,47.8395277],[-96.6135057,47.8415142],[-96.6133512,47.8416179],[-96.6131723,47.8416179],[-96.6119759,47.8416183],[-96.6115531,47.8413345],[-96.6115369,47.8422295],[-96.611797,47.8420877],[-96.6121711,47.8420331],[-96.6171257,47.8419874],[-96.6174063,47.8428675],[-96.6188857,47.8428105],[-96.6201669,47.842535],[-96.6202447,47.8428153],[-96.6206836,47.8431003],[-96.6208322,47.8433426],[-96.6206907,47.8435041],[-96.6147448,47.8452476],[-96.6145325,47.8454281],[-96.6148581,47.8459744],[-96.6151412,47.8460362],[-96.6215471,47.8442025],[-96.6215259,47.8458699],[-96.6216321,47.8459317],[-96.6227221,47.8459554],[-96.6227788,47.8441502],[-96.6227929,47.8439364],[-96.6229133,47.8437511],[-96.6232106,47.8436466],[-96.624152,47.8433996],[-96.6246192,47.8434614],[-96.6284415,47.8460409],[-96.6286374,47.8460872]]]},"properties":{"name":"Crookston Municipal Airport-Kirkwood Field","icao":null,"iata":"CKN","faa":null,"label":"CKN"}},{"type":"Feature","geometry":{"type":"Polygon","coordinates":[[[-93.6734443,45.0040239],[-93.6734436,45.0037371],[-93.6750242,45.0037371],[-93.6750306,45.0035968],[-93.6715593,45.0027029],[-93.6687689,45.0020225],[-93.6662751,45.0014256],[-93.6662027,45.0013508],[-93.6662075,45.0010833],[-93.667032,45.0013199],[-93.669098,45.0018377],[-93.671775,45.0024516],[-93.6734288,45.0028733],[-93.6781889,45.0040167],[-93.6780774,45.0043239],[-93.6766847,45.0040088],[-93.6765551,45.004026],[-93.6764674,45.0040837],[-93.6762725,45.0040285],[-93.6760332,45.0040351],[-93.6734443,45.0040239]]]},"properties":{"name":"Maple Airport","icao":null,"iata":null,"faa":"MN69","label":"MN69"}},{"type":"Feature","geometry":{"type":"Polygon","coordinates":[[[-94.3773847,46.718671],[-94.3809518,46.7186656],[-94.3809447,46.7197599],[-94.3812137,46.7202646],[-94.3815075,46.7204951],[-94.3818202,46.7206029],[-94.3824808,46.7206832],[-94.3824091,46.722237],[-94.3842176,46.7222141],[-94.3843747,46.7246346],[-94.3850198,46.725884],[-94.3856332,46.7269344],[-94.3872525,46.726957],[-94.3868191,46.7326498],[-94.386658,46.7328747],[-94.3862984,46.7330315],[-94.3824722,46.7330273],[-94.3826291,46.7301646],[-94.3811522,46.7268996],[-94.3789419,46.7220723],[-94.3773847,46.718671]]]},"properties":{"name":"Pine River Regional Airport","icao":"KPWC","iata":"PWC","faa":null,"label":"PWC"}},{"type":"Feature","geometry":{"type":"Polygon","coordinates":[[[-96.3943479,47.2540555],[-96.3965261,47.253319],[-96.4049814,47.2652111],[-96.4050368,47.2669493],[-96.4011668,47.266954],[-96.3995745,47.2646896],[-96.398266,47.2628244],[-96.4002045,47.2621807],[-96.3963567,47.2568709],[-96.3943479,47.2540555]]]},"properties":{"name":"Norman County & Ada-Twin Valley Airport","icao":null,"iata":null,"faa":"D00","label":"D00"}},{"type":"Feature","geometry":{"type":"Polygon","coordinates":[[[-96.2910258,47.5435504],[-96.2910473,47.5491484],[-96.301229,47.557794],[-96.2974202,47.5578664],[-96.2889981,47.5507125],[-96.2838697,47.550669],[-96.2840218,47.5435191],[-96.2910258,47.5435504]]]},"properties":{"name":"Fertile Municipal Airport","icao":null,"iata":null,"faa":"D14","label":"D14"}}]}